RatePer100000,ISOWeekStartDate,ISOWeekEndDate,ISOYear,ISOWeek,Region,RegionSortOrder,DiseaseName,Denominator,Numerator
13.3687,29/12/2003,04/01/2004,2004,1,National,0,Influenza-like illness,4316061,577
15.4597,05/01/2004,11/01/2004,2004,2,National,0,Influenza-like illness,4159207,643
9.3099,12/01/2004,18/01/2004,2004,3,National,0,Influenza-like illness,4135404,385
7.1897,19/01/2004,25/01/2004,2004,4,National,0,Influenza-like illness,4200480,302
5.7876,26/01/2004,01/02/2004,2004,5,National,0,Influenza-like illness,4129503,239
5.9045,02/02/2004,08/02/2004,2004,6,National,0,Influenza-like illness,4217113,249
3.9965,09/02/2004,15/02/2004,2004,7,National,0,Influenza-like illness,4128570,165
3.7629,16/02/2004,22/02/2004,2004,8,National,0,Influenza-like illness,4172357,157
4.1655,23/02/2004,29/02/2004,2004,9,National,0,Influenza-like illness,4177122,174
3.7819,01/03/2004,07/03/2004,2004,10,National,0,Influenza-like illness,4124907,156
4.1363,08/03/2004,14/03/2004,2004,11,National,0,Influenza-like illness,4182447,173
4.532,15/03/2004,21/03/2004,2004,12,National,0,Influenza-like illness,4214451,191
3.2847,22/03/2004,28/03/2004,2004,13,National,0,Influenza-like illness,4140452,136
3.987,29/03/2004,04/04/2004,2004,14,National,0,Influenza-like illness,2031581,81
1.9165,05/04/2004,11/04/2004,2004,15,National,0,Influenza-like illness,2034994,39
3.0757,12/04/2004,18/04/2004,2004,16,National,0,Influenza-like illness,2113322,65
3.2156,19/04/2004,25/04/2004,2004,17,National,0,Influenza-like illness,2052493,66
2.1242,26/04/2004,02/05/2004,2004,18,National,0,Influenza-like illness,2118427,45
1.713,03/05/2004,09/05/2004,2004,19,National,0,Influenza-like illness,2043171,35
2.793,10/05/2004,16/05/2004,2004,20,National,0,Influenza-like illness,2076603,58
1.9406,17/05/2004,23/05/2004,2004,21,National,0,Influenza-like illness,2061249,40
2.2262,24/05/2004,30/05/2004,2004,22,National,0,Influenza-like illness,2066319,46
1.5696,31/05/2004,06/06/2004,2004,23,National,0,Influenza-like illness,2102445,33
2.1708,07/06/2004,13/06/2004,2004,24,National,0,Influenza-like illness,2119081,46
1.8314,14/06/2004,20/06/2004,2004,25,National,0,Influenza-like illness,2129570,39
2.2673,21/06/2004,27/06/2004,2004,26,National,0,Influenza-like illness,2072953,47
1.9503,28/06/2004,04/07/2004,2004,27,National,0,Influenza-like illness,2102262,41
1.5977,05/07/2004,11/07/2004,2004,28,National,0,Influenza-like illness,2128078,34
2.9463,12/07/2004,18/07/2004,2004,29,National,0,Influenza-like illness,2070426,61
1.4777,19/07/2004,25/07/2004,2004,30,National,0,Influenza-like illness,2097840,31
1.4714,26/07/2004,01/08/2004,2004,31,National,0,Influenza-like illness,2106880,31
1.869,02/08/2004,08/08/2004,2004,32,National,0,Influenza-like illness,2140132,40
1.3077,09/08/2004,15/08/2004,2004,33,National,0,Influenza-like illness,2064657,27
1.4888,16/08/2004,22/08/2004,2004,34,National,0,Influenza-like illness,2149407,32
1.6119,23/08/2004,29/08/2004,2004,35,National,0,Influenza-like illness,2109307,34
1.4878,30/08/2004,05/09/2004,2004,36,National,0,Influenza-like illness,2150808,32
2.1893,06/09/2004,12/09/2004,2004,37,National,0,Influenza-like illness,2146775,47
3.0954,13/09/2004,19/09/2004,2004,38,National,0,Influenza-like illness,2164507,67
4.0723,20/09/2004,26/09/2004,2004,39,National,0,Influenza-like illness,2160948,88
3.9561,27/09/2004,03/10/2004,2004,40,National,0,Influenza-like illness,2173875,86
5.467,04/10/2004,10/10/2004,2004,41,National,0,Influenza-like illness,2158400,118
5.554,11/10/2004,17/10/2004,2004,42,National,0,Influenza-like illness,2088599,116
4.4602,18/10/2004,24/10/2004,2004,43,National,0,Influenza-like illness,2129951,95
4.9139,25/10/2004,31/10/2004,2004,44,National,0,Influenza-like illness,2116466,104
5.7484,01/11/2004,07/11/2004,2004,45,National,0,Influenza-like illness,2122332,122
5.1122,08/11/2004,14/11/2004,2004,46,National,0,Influenza-like illness,2151726,110
5.0828,15/11/2004,21/11/2004,2004,47,National,0,Influenza-like illness,2124827,108
5.7414,22/11/2004,28/11/2004,2004,48,National,0,Influenza-like illness,2159748,124
7.0364,29/11/2004,05/12/2004,2004,49,National,0,Influenza-like illness,2160199,152
8.1339,06/12/2004,12/12/2004,2004,50,National,0,Influenza-like illness,2139189,174
10.4622,13/12/2004,19/12/2004,2004,51,National,0,Influenza-like illness,2198397,230
11.557,20/12/2004,26/12/2004,2004,52,National,0,Influenza-like illness,2145886,248
11.0384,27/12/2004,02/01/2005,2004,53,National,0,Influenza-like illness,2210456,244
19.9549,03/01/2005,09/01/2005,2005,1,National,0,Influenza-like illness,2129798,425
19.6695,10/01/2005,16/01/2005,2005,2,National,0,Influenza-like illness,2155626,424
13.459,17/01/2005,23/01/2005,2005,3,National,0,Influenza-like illness,2147264,289
18.9087,24/01/2005,30/01/2005,2005,4,National,0,Influenza-like illness,2163022,409
20.8527,31/01/2005,06/02/2005,2005,5,National,0,Influenza-like illness,2239523,467
19.1118,07/02/2005,13/02/2005,2005,6,National,0,Influenza-like illness,2202828,421
16.7424,14/02/2005,20/02/2005,2005,7,National,0,Influenza-like illness,2168149,363
15.3391,21/02/2005,27/02/2005,2005,8,National,0,Influenza-like illness,2242641,344
15.4139,28/02/2005,06/03/2005,2005,9,National,0,Influenza-like illness,2218781,342
16.4616,07/03/2005,13/03/2005,2005,10,National,0,Influenza-like illness,2205135,363
15.8719,14/03/2005,20/03/2005,2005,11,National,0,Influenza-like illness,2230350,354
12.0952,21/03/2005,27/03/2005,2005,12,National,0,Influenza-like illness,2207483,267
8.1313,28/03/2005,03/04/2005,2005,13,National,0,Influenza-like illness,2078384,169
7.4315,04/04/2005,10/04/2005,2005,14,National,0,Influenza-like illness,2072272,154
5.3272,11/04/2005,17/04/2005,2005,15,National,0,Influenza-like illness,2083636,111
4.7281,18/04/2005,24/04/2005,2005,16,National,0,Influenza-like illness,2115025,100
5.2092,25/04/2005,01/05/2005,2005,17,National,0,Influenza-like illness,2111640,110
3.0949,02/05/2005,08/05/2005,2005,18,National,0,Influenza-like illness,2132535,66
4.0669,09/05/2005,15/05/2005,2005,19,National,0,Influenza-like illness,2114615,86
3.4838,16/05/2005,22/05/2005,2005,20,National,0,Influenza-like illness,2124133,74
3.8972,23/05/2005,29/05/2005,2005,21,National,0,Influenza-like illness,2129761,83
2.6425,30/05/2005,05/06/2005,2005,22,National,0,Influenza-like illness,2119187,56
2.4413,06/06/2005,12/06/2005,2005,23,National,0,Influenza-like illness,2129995,52
2.3761,13/06/2005,19/06/2005,2005,24,National,0,Influenza-like illness,2146389,51
1.6697,20/06/2005,26/06/2005,2005,25,National,0,Influenza-like illness,2156019,36
1.8214,27/06/2005,03/07/2005,2005,26,National,0,Influenza-like illness,2141223,39
1.8059,04/07/2005,10/07/2005,2005,27,National,0,Influenza-like illness,2104208,38
2.085,11/07/2005,17/07/2005,2005,28,National,0,Influenza-like illness,2110333,44
1.8533,18/07/2005,24/07/2005,2005,29,National,0,Influenza-like illness,2104388,39
2.0734,25/07/2005,31/07/2005,2005,30,National,0,Influenza-like illness,2122068,44
1.9511,01/08/2005,07/08/2005,2005,31,National,0,Influenza-like illness,2101391,41
1.9118,08/08/2005,14/08/2005,2005,32,National,0,Influenza-like illness,2092314,40
1.9879,15/08/2005,21/08/2005,2005,33,National,0,Influenza-like illness,2112741,42
2.0514,22/08/2005,28/08/2005,2005,34,National,0,Influenza-like illness,2096098,43
1.8959,29/08/2005,04/09/2005,2005,35,National,0,Influenza-like illness,2109865,40
2.9137,05/09/2005,11/09/2005,2005,36,National,0,Influenza-like illness,2093541,61
2.8897,12/09/2005,18/09/2005,2005,37,National,0,Influenza-like illness,2110937,61
3.0271,19/09/2005,25/09/2005,2005,38,National,0,Influenza-like illness,2114218,64
3.963,26/09/2005,02/10/2005,2005,39,National,0,Influenza-like illness,2094369,83
6.1731,03/10/2005,09/10/2005,2005,40,National,0,Influenza-like illness,2122096,131
6.865,10/10/2005,16/10/2005,2005,41,National,0,Influenza-like illness,2112166,145
6.7385,17/10/2005,23/10/2005,2005,42,National,0,Influenza-like illness,2151829,145
7.0145,24/10/2005,30/10/2005,2005,43,National,0,Influenza-like illness,2152683,151
6.5879,31/10/2005,06/11/2005,2005,44,National,0,Influenza-like illness,2109922,139
5.9324,07/11/2005,13/11/2005,2005,45,National,0,Influenza-like illness,2123931,126
6.8901,14/11/2005,20/11/2005,2005,46,National,0,Influenza-like illness,2148009,148
6.5394,21/11/2005,27/11/2005,2005,47,National,0,Influenza-like illness,2140871,140
6.708,28/11/2005,04/12/2005,2005,48,National,0,Influenza-like illness,2176508,146
8.5049,05/12/2005,11/12/2005,2005,49,National,0,Influenza-like illness,2163465,184
8.9924,12/12/2005,18/12/2005,2005,50,National,0,Influenza-like illness,2168497,195
8.9994,19/12/2005,25/12/2005,2005,51,National,0,Influenza-like illness,2166820,195
6.7792,26/12/2005,01/01/2006,2005,52,National,0,Influenza-like illness,2212636,150
11.2527,02/01/2006,08/01/2006,2006,1,National,0,Influenza-like illness,2159477,243
11.8867,09/01/2006,15/01/2006,2006,2,National,0,Influenza-like illness,2170490,258
12.6858,16/01/2006,22/01/2006,2006,3,National,0,Influenza-like illness,2136240,271
12.7815,23/01/2006,29/01/2006,2006,4,National,0,Influenza-like illness,2143716,274
18.6564,30/01/2006,05/02/2006,2006,5,National,0,Influenza-like illness,2165478,404
27.4602,06/02/2006,12/02/2006,2006,6,National,0,Influenza-like illness,2166773,595
25.4997,13/02/2006,19/02/2006,2006,7,National,0,Influenza-like illness,2160812,551
18.0665,20/02/2006,26/02/2006,2006,8,National,0,Influenza-like illness,2186372,395
16.2959,27/02/2006,05/03/2006,2006,9,National,0,Influenza-like illness,2147778,350
14.257,06/03/2006,12/03/2006,2006,10,National,0,Influenza-like illness,2139298,305
15.8219,13/03/2006,19/03/2006,2006,11,National,0,Influenza-like illness,2148920,340
14.8386,20/03/2006,26/03/2006,2006,12,National,0,Influenza-like illness,2163280,321
13.8784,27/03/2006,02/04/2006,2006,13,National,0,Influenza-like illness,2204862,306
8.5405,03/04/2006,09/04/2006,2006,14,National,0,Influenza-like illness,2189578,187
5.7533,10/04/2006,16/04/2006,2006,15,National,0,Influenza-like illness,2190040,126
4.9472,17/04/2006,23/04/2006,2006,16,National,0,Influenza-like illness,2183044,108
4.7348,24/04/2006,30/04/2006,2006,17,National,0,Influenza-like illness,2196490,104
3.4975,01/05/2006,07/05/2006,2006,18,National,0,Influenza-like illness,2230170,78
3.5121,08/05/2006,14/05/2006,2006,19,National,0,Influenza-like illness,2220892,78
3.1375,15/05/2006,21/05/2006,2006,20,National,0,Influenza-like illness,2231101,70
3.3881,22/05/2006,28/05/2006,2006,21,National,0,Influenza-like illness,2243144,76
3.0702,29/05/2006,04/06/2006,2006,22,National,0,Influenza-like illness,2214868,68
2.6675,05/06/2006,11/06/2006,2006,23,National,0,Influenza-like illness,2249306,60
2.091,12/06/2006,18/06/2006,2006,24,National,0,Influenza-like illness,2247720,47
2.1353,19/06/2006,25/06/2006,2006,25,National,0,Influenza-like illness,2201048,47
2.1411,26/06/2006,02/07/2006,2006,26,National,0,Influenza-like illness,2241871,48
1.5942,03/07/2006,09/07/2006,2006,27,National,0,Influenza-like illness,2258142,36
2.1779,10/07/2006,16/07/2006,2006,28,National,0,Influenza-like illness,2249919,49
2.0882,17/07/2006,23/07/2006,2006,29,National,0,Influenza-like illness,2250756,47
0.9875,24/07/2006,30/07/2006,2006,30,National,0,Influenza-like illness,2227776,22
1.8509,31/07/2006,06/08/2006,2006,31,National,0,Influenza-like illness,2269190,42
1.7725,07/08/2006,13/08/2006,2006,32,National,0,Influenza-like illness,2200242,39
1.3423,14/08/2006,20/08/2006,2006,33,National,0,Influenza-like illness,2234901,30
1.3355,21/08/2006,27/08/2006,2006,34,National,0,Influenza-like illness,2246288,30
1.6469,28/08/2006,03/09/2006,2006,35,National,0,Influenza-like illness,2246604,37
2.7773,04/09/2006,10/09/2006,2006,36,National,0,Influenza-like illness,2232394,62
2.4811,11/09/2006,17/09/2006,2006,37,National,0,Influenza-like illness,2216787,55
2.5907,18/09/2006,24/09/2006,2006,38,National,0,Influenza-like illness,2238810,58
3.6922,25/09/2006,01/10/2006,2006,39,National,0,Influenza-like illness,2247954,83
3.9266,02/10/2006,08/10/2006,2006,40,National,0,Influenza-like illness,2215638,87
4.2948,09/10/2006,15/10/2006,2006,41,National,0,Influenza-like illness,2235237,96
5.8201,16/10/2006,22/10/2006,2006,42,National,0,Influenza-like illness,2233657,130
5.4909,23/10/2006,29/10/2006,2006,43,National,0,Influenza-like illness,2221838,122
5.4175,30/10/2006,05/11/2006,2006,44,National,0,Influenza-like illness,2215053,120
4.9974,06/11/2006,12/11/2006,2006,45,National,0,Influenza-like illness,2221157,111
6.6202,13/11/2006,19/11/2006,2006,46,National,0,Influenza-like illness,2175173,144
5.9296,20/11/2006,26/11/2006,2006,47,National,0,Influenza-like illness,2209253,131
7.1237,27/11/2006,03/12/2006,2006,48,National,0,Influenza-like illness,2203916,157
6.065,04/12/2006,10/12/2006,2006,49,National,0,Influenza-like illness,2225882,135
5.7099,11/12/2006,17/12/2006,2006,50,National,0,Influenza-like illness,2224201,127
5.2191,18/12/2006,24/12/2006,2006,51,National,0,Influenza-like illness,2203447,115
5.087,25/12/2006,31/12/2006,2006,52,National,0,Influenza-like illness,2221368,113
11.4961,01/01/2007,07/01/2007,2007,1,National,0,Influenza-like illness,2279033,262
13.4303,08/01/2007,14/01/2007,2007,2,National,0,Influenza-like illness,2226316,299
10.5319,15/01/2007,21/01/2007,2007,3,National,0,Influenza-like illness,2240805,236
10.9965,22/01/2007,28/01/2007,2007,4,National,0,Influenza-like illness,2200710,242
17.2084,29/01/2007,04/02/2007,2007,5,National,0,Influenza-like illness,2272146,391
22.1818,05/02/2007,11/02/2007,2007,6,National,0,Influenza-like illness,2276645,505
28.6173,12/02/2007,18/02/2007,2007,7,National,0,Influenza-like illness,2250387,644
25.3175,19/02/2007,25/02/2007,2007,8,National,0,Influenza-like illness,2271152,575
17.449,26/02/2007,04/03/2007,2007,9,National,0,Influenza-like illness,2252281,393
11.961,05/03/2007,11/03/2007,2007,10,National,0,Influenza-like illness,2257330,270
9.4944,12/03/2007,18/03/2007,2007,11,National,0,Influenza-like illness,2232898,212
7.7216,19/03/2007,25/03/2007,2007,12,National,0,Influenza-like illness,2305235,178
7.4457,26/03/2007,01/04/2007,2007,13,National,0,Influenza-like illness,2296618,171
5.6762,02/04/2007,08/04/2007,2007,14,National,0,Influenza-like illness,2290253,130
4.3571,09/04/2007,15/04/2007,2007,15,National,0,Influenza-like illness,2295093,100
3.7288,16/04/2007,22/04/2007,2007,16,National,0,Influenza-like illness,2306346,86
3.0289,23/04/2007,29/04/2007,2007,17,National,0,Influenza-like illness,2344050,71
2.9803,30/04/2007,06/05/2007,2007,18,National,0,Influenza-like illness,2281675,68
2.48,07/05/2007,13/05/2007,2007,19,National,0,Influenza-like illness,2258087,56
3.4846,14/05/2007,20/05/2007,2007,20,National,0,Influenza-like illness,2267136,79
3.8555,21/05/2007,27/05/2007,2007,21,National,0,Influenza-like illness,2282457,88
2.0424,28/05/2007,03/06/2007,2007,22,National,0,Influenza-like illness,2301204,47
3.3845,04/06/2007,10/06/2007,2007,23,National,0,Influenza-like illness,2304611,78
2.3409,11/06/2007,17/06/2007,2007,24,National,0,Influenza-like illness,2306837,54
1.9555,18/06/2007,24/06/2007,2007,25,National,0,Influenza-like illness,2352390,46
2.4013,25/06/2007,01/07/2007,2007,26,National,0,Influenza-like illness,2373741,57
2.2866,02/07/2007,08/07/2007,2007,27,National,0,Influenza-like illness,2317840,53
2.5932,09/07/2007,15/07/2007,2007,28,National,0,Influenza-like illness,2313720,60
1.9168,16/07/2007,22/07/2007,2007,29,National,0,Influenza-like illness,2347720,45
2.4765,23/07/2007,29/07/2007,2007,30,National,0,Influenza-like illness,2301613,57
2.2203,30/07/2007,05/08/2007,2007,31,National,0,Influenza-like illness,2342073,52
2.3657,06/08/2007,12/08/2007,2007,32,National,0,Influenza-like illness,2324899,55
2.7926,13/08/2007,19/08/2007,2007,33,National,0,Influenza-like illness,2327593,65
2.262,20/08/2007,26/08/2007,2007,34,National,0,Influenza-like illness,2343108,53
1.5598,27/08/2007,02/09/2007,2007,35,National,0,Influenza-like illness,2372055,37
2.3754,03/09/2007,09/09/2007,2007,36,National,0,Influenza-like illness,2357522,56
2.5387,10/09/2007,16/09/2007,2007,37,National,0,Influenza-like illness,2323983,59
2.3734,17/09/2007,23/09/2007,2007,38,National,0,Influenza-like illness,2317306,55
3.2885,24/09/2007,30/09/2007,2007,39,National,0,Influenza-like illness,2311083,76
4.4671,01/10/2007,07/10/2007,2007,40,National,0,Influenza-like illness,2328158,104
5.6714,08/10/2007,14/10/2007,2007,41,National,0,Influenza-like illness,2327451,132
6.3296,15/10/2007,21/10/2007,2007,42,National,0,Influenza-like illness,2338234,148
6.7472,22/10/2007,28/10/2007,2007,43,National,0,Influenza-like illness,2341724,158
7.1458,29/10/2007,04/11/2007,2007,44,National,0,Influenza-like illness,2351032,168
6.9641,05/11/2007,11/11/2007,2007,45,National,0,Influenza-like illness,2340589,163
6.6649,12/11/2007,18/11/2007,2007,46,National,0,Influenza-like illness,2370624,158
7.2357,19/11/2007,25/11/2007,2007,47,National,0,Influenza-like illness,2349471,170
10.6273,26/11/2007,02/12/2007,2007,48,National,0,Influenza-like illness,2352443,250
10.4969,03/12/2007,09/12/2007,2007,49,National,0,Influenza-like illness,2372118,249
10.3866,10/12/2007,16/12/2007,2007,50,National,0,Influenza-like illness,2387702,248
14.1552,17/12/2007,23/12/2007,2007,51,National,0,Influenza-like illness,2331301,330
13.3273,24/12/2007,30/12/2007,2007,52,National,0,Influenza-like illness,2356061,314
20.2506,31/12/2007,06/01/2008,2008,1,National,0,Influenza-like illness,2404869,487
20.2739,07/01/2008,13/01/2008,2008,2,National,0,Influenza-like illness,2333047,473
14.3635,14/01/2008,20/01/2008,2008,3,National,0,Influenza-like illness,2367108,340
9.0254,21/01/2008,27/01/2008,2008,4,National,0,Influenza-like illness,2371097,214
8.5513,28/01/2008,03/02/2008,2008,5,National,0,Influenza-like illness,2397289,205
8.1152,04/02/2008,10/02/2008,2008,6,National,0,Influenza-like illness,2378240,193
7.5109,11/02/2008,17/02/2008,2008,7,National,0,Influenza-like illness,2396533,180
7.9525,18/02/2008,24/02/2008,2008,8,National,0,Influenza-like illness,2414346,192
9.0887,25/02/2008,02/03/2008,2008,9,National,0,Influenza-like illness,2409575,219
8.6809,03/03/2008,09/03/2008,2008,10,National,0,Influenza-like illness,2442144,212
9.2248,10/03/2008,16/03/2008,2008,11,National,0,Influenza-like illness,2439075,225
7.1845,17/03/2008,23/03/2008,2008,12,National,0,Influenza-like illness,2435804,175
9.2926,24/03/2008,30/03/2008,2008,13,National,0,Influenza-like illness,2421271,225
10.2123,31/03/2008,06/04/2008,2008,14,National,0,Influenza-like illness,2467619,252
6.5725,07/04/2008,13/04/2008,2008,15,National,0,Influenza-like illness,2464811,162
6.7825,14/04/2008,20/04/2008,2008,16,National,0,Influenza-like illness,2476976,168
7.6041,21/04/2008,27/04/2008,2008,17,National,0,Influenza-like illness,2472366,188
5.509,28/04/2008,04/05/2008,2008,18,National,0,Influenza-like illness,2504985,138
2.9506,05/05/2008,11/05/2008,2008,19,National,0,Influenza-like illness,2507939,74
2.9394,12/05/2008,18/05/2008,2008,20,National,0,Influenza-like illness,2517525,74
2.6783,19/05/2008,25/05/2008,2008,21,National,0,Influenza-like illness,2501620,67
2.6857,26/05/2008,01/06/2008,2008,22,National,0,Influenza-like illness,2494691,67
3.0658,02/06/2008,08/06/2008,2008,23,National,0,Influenza-like illness,2511542,77
2.5022,09/06/2008,15/06/2008,2008,24,National,0,Influenza-like illness,2557789,64
2.1429,16/06/2008,22/06/2008,2008,25,National,0,Influenza-like illness,2566650,55
2.1561,23/06/2008,29/06/2008,2008,26,National,0,Influenza-like illness,2504485,54
2.4054,30/06/2008,06/07/2008,2008,27,National,0,Influenza-like illness,2535965,61
2.8172,07/07/2008,13/07/2008,2008,28,National,0,Influenza-like illness,2520215,71
2.3608,14/07/2008,20/07/2008,2008,29,National,0,Influenza-like illness,2541556,60
1.9202,21/07/2008,27/07/2008,2008,30,National,0,Influenza-like illness,2551874,49
1.6601,28/07/2008,03/08/2008,2008,31,National,0,Influenza-like illness,2590264,43
1.8398,04/08/2008,10/08/2008,2008,32,National,0,Influenza-like illness,2554608,47
2.1329,11/08/2008,17/08/2008,2008,33,National,0,Influenza-like illness,2531737,54
2.3217,18/08/2008,24/08/2008,2008,34,National,0,Influenza-like illness,2498137,58
1.9512,25/08/2008,31/08/2008,2008,35,National,0,Influenza-like illness,2562566,50
1.9976,01/09/2008,07/09/2008,2008,36,National,0,Influenza-like illness,2603081,52
1.9067,08/09/2008,14/09/2008,2008,37,National,0,Influenza-like illness,2569845,49
3.8351,15/09/2008,21/09/2008,2008,38,National,0,Influenza-like illness,2581415,99
4.4079,22/09/2008,28/09/2008,2008,39,National,0,Influenza-like illness,2563590,113
4.5749,29/09/2008,05/10/2008,2008,40,National,0,Influenza-like illness,2557444,117
5.6303,06/10/2008,12/10/2008,2008,41,National,0,Influenza-like illness,2557580,144
6.4146,13/10/2008,19/10/2008,2008,42,National,0,Influenza-like illness,2572237,165
5.8557,20/10/2008,26/10/2008,2008,43,National,0,Influenza-like illness,2578698,151
5.5954,27/10/2008,02/11/2008,2008,44,National,0,Influenza-like illness,2555659,143
7.1364,03/11/2008,09/11/2008,2008,45,National,0,Influenza-like illness,2592330,185
8.0312,10/11/2008,16/11/2008,2008,46,National,0,Influenza-like illness,2602351,209
10.2048,17/11/2008,23/11/2008,2008,47,National,0,Influenza-like illness,2518413,257
13.0086,24/11/2008,30/11/2008,2008,48,National,0,Influenza-like illness,2582913,336
18.1313,01/12/2008,07/12/2008,2008,49,National,0,Influenza-like illness,2492922,452
27.0938,08/12/2008,14/12/2008,2008,50,National,0,Influenza-like illness,2550396,691
41.6842,15/12/2008,21/12/2008,2008,51,National,0,Influenza-like illness,2540531,1059
24.2124,22/12/2008,28/12/2008,2008,52,National,0,Influenza-like illness,2556538,619
34.2718,29/12/2008,04/01/2009,2009,1,National,0,Influenza-like illness,2605638,893
28.9784,05/01/2009,11/01/2009,2009,2,National,0,Influenza-like illness,2515667,729
19.0326,12/01/2009,18/01/2009,2009,3,National,0,Influenza-like illness,2516738,479
11.471,19/01/2009,25/01/2009,2009,4,National,0,Influenza-like illness,2528119,290
8.511,26/01/2009,01/02/2009,2009,5,National,0,Influenza-like illness,2596648,221
6.8952,02/02/2009,08/02/2009,2009,6,National,0,Influenza-like illness,2610521,180
6.6285,09/02/2009,15/02/2009,2009,7,National,0,Influenza-like illness,2579759,171
5.2358,16/02/2009,22/02/2009,2009,8,National,0,Influenza-like illness,2578418,135
6.4366,23/02/2009,01/03/2009,2009,9,National,0,Influenza-like illness,2594554,167
5.6382,02/03/2009,08/03/2009,2009,10,National,0,Influenza-like illness,2589492,146
4.6151,09/03/2009,15/03/2009,2009,11,National,0,Influenza-like illness,2621843,121
4.3082,16/03/2009,22/03/2009,2009,12,National,0,Influenza-like illness,2553288,110
4.7275,23/03/2009,29/03/2009,2009,13,National,0,Influenza-like illness,2559509,121
3.8875,30/03/2009,05/04/2009,2009,14,National,0,Influenza-like illness,2546651,99
2.8915,06/04/2009,12/04/2009,2009,15,National,0,Influenza-like illness,2559189,74
3.4812,13/04/2009,19/04/2009,2009,16,National,0,Influenza-like illness,2556572,89
2.7583,20/04/2009,26/04/2009,2009,17,National,0,Influenza-like illness,2537781,70
9.0493,27/04/2009,03/05/2009,2009,18,National,0,Influenza-like illness,2541641,230
8.5164,04/05/2009,10/05/2009,2009,19,National,0,Influenza-like illness,2512795,214
8.6526,11/05/2009,17/05/2009,2009,20,National,0,Influenza-like illness,2531033,219
6.4676,18/05/2009,24/05/2009,2009,21,National,0,Influenza-like illness,2551175,165
3.2157,25/05/2009,31/05/2009,2009,22,National,0,Influenza-like illness,2612199,84
4.9753,01/06/2009,07/06/2009,2009,23,National,0,Influenza-like illness,2612916,130
5.1792,08/06/2009,14/06/2009,2009,24,National,0,Influenza-like illness,2567986,133
9.3971,15/06/2009,21/06/2009,2009,25,National,0,Influenza-like illness,2596534,244
17.0627,22/06/2009,28/06/2009,2009,26,National,0,Influenza-like illness,2602167,444
28.1949,29/06/2009,05/07/2009,2009,27,National,0,Influenza-like illness,2628137,741
56.3779,06/07/2009,12/07/2009,2009,28,National,0,Influenza-like illness,2635785,1486
143.1039,13/07/2009,19/07/2009,2009,29,National,0,Influenza-like illness,2586233,3701
128.6519,20/07/2009,26/07/2009,2009,30,National,0,Influenza-like illness,2625689,3378
39.2698,27/07/2009,02/08/2009,2009,31,National,0,Influenza-like illness,2615243,1027
28.4731,03/08/2009,09/08/2009,2009,32,National,0,Influenza-like illness,2665675,759
17.7527,10/08/2009,16/08/2009,2009,33,National,0,Influenza-like illness,2647484,470
12.6811,17/08/2009,23/08/2009,2009,34,National,0,Influenza-like illness,2657494,337
9.8866,24/08/2009,30/08/2009,2009,35,National,0,Influenza-like illness,2680390,265
7.3124,31/08/2009,06/09/2009,2009,36,National,0,Influenza-like illness,2680376,196
9.286,07/09/2009,13/09/2009,2009,37,National,0,Influenza-like illness,2649149,246
11.0747,14/09/2009,20/09/2009,2009,38,National,0,Influenza-like illness,2672765,296
17.5501,21/09/2009,27/09/2009,2009,39,National,0,Influenza-like illness,2621074,460
20.7124,28/09/2009,04/10/2009,2009,40,National,0,Influenza-like illness,2621618,543
22.2459,05/10/2009,11/10/2009,2009,41,National,0,Influenza-like illness,2584743,575
26.2227,12/10/2009,18/10/2009,2009,42,National,0,Influenza-like illness,2593177,680
32.7817,19/10/2009,25/10/2009,2009,43,National,0,Influenza-like illness,2623415,860
30.9077,26/10/2009,01/11/2009,2009,44,National,0,Influenza-like illness,2539824,785
30.14,02/11/2009,08/11/2009,2009,45,National,0,Influenza-like illness,2604515,785
25.1529,09/11/2009,15/11/2009,2009,46,National,0,Influenza-like illness,2588166,651
28.7321,16/11/2009,22/11/2009,2009,47,National,0,Influenza-like illness,2565072,737
25.1453,23/11/2009,29/11/2009,2009,48,National,0,Influenza-like illness,2588954,651
25.2345,30/11/2009,06/12/2009,2009,49,National,0,Influenza-like illness,2548100,643
20.9219,07/12/2009,13/12/2009,2009,50,National,0,Influenza-like illness,2643168,553
19.6316,14/12/2009,20/12/2009,2009,51,National,0,Influenza-like illness,2638607,518
11.0054,21/12/2009,27/12/2009,2009,52,National,0,Influenza-like illness,2662337,293
10.4849,28/12/2009,03/01/2010,2009,53,National,0,Influenza-like illness,2680050,281
14.307,04/01/2010,10/01/2010,2010,1,National,0,Influenza-like illness,2684009,384
11.7022,11/01/2010,17/01/2010,2010,2,National,0,Influenza-like illness,2640538,309
8.9381,18/01/2010,24/01/2010,2010,3,National,0,Influenza-like illness,2618009,234
9.3585,25/01/2010,31/01/2010,2010,4,National,0,Influenza-like illness,2628637,246
8.6881,01/02/2010,07/02/2010,2010,5,National,0,Influenza-like illness,2647287,230
8.2364,08/02/2010,14/02/2010,2010,6,National,0,Influenza-like illness,2634634,217
6.6026,15/02/2010,21/02/2010,2010,7,National,0,Influenza-like illness,2650471,175
7.2717,22/02/2010,28/02/2010,2010,8,National,0,Influenza-like illness,2599118,189
6.2089,01/03/2010,07/03/2010,2010,9,National,0,Influenza-like illness,2641354,164
5.6829,08/03/2010,14/03/2010,2010,10,National,0,Influenza-like illness,2621882,149
6.1508,15/03/2010,21/03/2010,2010,11,National,0,Influenza-like illness,2617557,161
5.9147,22/03/2010,28/03/2010,2010,12,National,0,Influenza-like illness,2603691,154
3.6652,29/03/2010,04/04/2010,2010,13,National,0,Influenza-like illness,2564639,94
3.4906,05/04/2010,11/04/2010,2010,14,National,0,Influenza-like illness,2607006,91
3.5779,12/04/2010,18/04/2010,2010,15,National,0,Influenza-like illness,2627255,94
4.3235,19/04/2010,25/04/2010,2010,16,National,0,Influenza-like illness,2613624,113
3.7334,26/04/2010,02/05/2010,2010,17,National,0,Influenza-like illness,2651757,99
3.1004,03/05/2010,09/05/2010,2010,18,National,0,Influenza-like illness,2644856,82
4.7088,10/05/2010,16/05/2010,2010,19,National,0,Influenza-like illness,2569673,121
3.4125,17/05/2010,23/05/2010,2010,20,National,0,Influenza-like illness,2637364,90
2.638,24/05/2010,30/05/2010,2010,21,National,0,Influenza-like illness,2539826,67
1.9035,31/05/2010,06/06/2010,2010,22,National,0,Influenza-like illness,2679275,51
3.0464,07/06/2010,13/06/2010,2010,23,National,0,Influenza-like illness,2626043,80
2.1909,14/06/2010,20/06/2010,2010,24,National,0,Influenza-like illness,2647295,58
1.8121,21/06/2010,27/06/2010,2010,25,National,0,Influenza-like illness,2648881,48
1.3154,28/06/2010,04/07/2010,2010,26,National,0,Influenza-like illness,2660707,35
2.041,05/07/2010,11/07/2010,2010,27,National,0,Influenza-like illness,2645777,54
1.9881,12/07/2010,18/07/2010,2010,28,National,0,Influenza-like illness,2665906,53
2.2484,19/07/2010,25/07/2010,2010,29,National,0,Influenza-like illness,2668531,60
2.1984,26/07/2010,01/08/2010,2010,30,National,0,Influenza-like illness,2683733,59
1.856,02/08/2010,08/08/2010,2010,31,National,0,Influenza-like illness,2693946,50
2.2583,09/08/2010,15/08/2010,2010,32,National,0,Influenza-like illness,2745381,62
2.2456,16/08/2010,22/08/2010,2010,33,National,0,Influenza-like illness,2716382,61
2.4806,23/08/2010,29/08/2010,2010,34,National,0,Influenza-like illness,2700996,67
2.2028,30/08/2010,05/09/2010,2010,35,National,0,Influenza-like illness,2678359,59
3.3212,06/09/2010,12/09/2010,2010,36,National,0,Influenza-like illness,2679760,89
4.4079,13/09/2010,19/09/2010,2010,37,National,0,Influenza-like illness,2677013,118
4.6148,20/09/2010,26/09/2010,2010,38,National,0,Influenza-like illness,2665351,123
4.9002,27/09/2010,03/10/2010,2010,39,National,0,Influenza-like illness,2632559,129
6.4484,04/10/2010,10/10/2010,2010,40,National,0,Influenza-like illness,2651819,171
7.6733,11/10/2010,17/10/2010,2010,41,National,0,Influenza-like illness,2645535,203
7.0541,18/10/2010,24/10/2010,2010,42,National,0,Influenza-like illness,2707652,191
6.6575,25/10/2010,31/10/2010,2010,43,National,0,Influenza-like illness,2703716,180
7.9971,01/11/2010,07/11/2010,2010,44,National,0,Influenza-like illness,2675980,214
7.2584,08/11/2010,14/11/2010,2010,45,National,0,Influenza-like illness,2714082,197
6.6564,15/11/2010,21/11/2010,2010,46,National,0,Influenza-like illness,2689126,179
11.013,22/11/2010,28/11/2010,2010,47,National,0,Influenza-like illness,2687738,296
11.8977,29/11/2010,05/12/2010,2010,48,National,0,Influenza-like illness,2723208,324
22.3982,06/12/2010,12/12/2010,2010,49,National,0,Influenza-like illness,2647537,593
61.2274,13/12/2010,19/12/2010,2010,50,National,0,Influenza-like illness,2631175,1611
88.0114,20/12/2010,26/12/2010,2010,51,National,0,Influenza-like illness,2633749,2318
81.5222,27/12/2010,02/01/2011,2010,52,National,0,Influenza-like illness,2714599,2213
87.8638,03/01/2011,09/01/2011,2011,1,National,0,Influenza-like illness,2630206,2311
60.9895,10/01/2011,16/01/2011,2011,2,National,0,Influenza-like illness,2672591,1630
31.9334,17/01/2011,23/01/2011,2011,3,National,0,Influenza-like illness,2639869,843
20.9641,24/01/2011,30/01/2011,2011,4,National,0,Influenza-like illness,2642610,554
16.8161,31/01/2011,06/02/2011,2011,5,National,0,Influenza-like illness,2652214,446
14.6829,07/02/2011,13/02/2011,2011,6,National,0,Influenza-like illness,2662963,391
9.2474,14/02/2011,20/02/2011,2011,7,National,0,Influenza-like illness,2681827,248
7.6205,21/02/2011,27/02/2011,2011,8,National,0,Influenza-like illness,2650738,202
7.1393,28/02/2011,06/03/2011,2011,9,National,0,Influenza-like illness,2647302,189
7.9217,07/03/2011,13/03/2011,2011,10,National,0,Influenza-like illness,2676189,212
6.2078,14/03/2011,20/03/2011,2011,11,National,0,Influenza-like illness,2657939,165
5.3849,21/03/2011,27/03/2011,2011,12,National,0,Influenza-like illness,2636985,142
5.4024,28/03/2011,03/04/2011,2011,13,National,0,Influenza-like illness,2758038,149
4.5473,04/04/2011,10/04/2011,2011,14,National,0,Influenza-like illness,2704917,123
4.5481,11/04/2011,17/04/2011,2011,15,National,0,Influenza-like illness,2748418,125
2.5125,18/04/2011,24/04/2011,2011,16,National,0,Influenza-like illness,2746314,69
2.2242,25/04/2011,01/05/2011,2011,17,National,0,Influenza-like illness,2832419,63
2.4826,02/05/2011,08/05/2011,2011,18,National,0,Influenza-like illness,2779388,69
2.3629,09/05/2011,15/05/2011,2011,19,National,0,Influenza-like illness,2793123,66
2.6457,16/05/2011,22/05/2011,2011,20,National,0,Influenza-like illness,2797030,74
3.1028,23/05/2011,29/05/2011,2011,21,National,0,Influenza-like illness,2771695,86
2.3857,30/05/2011,05/06/2011,2011,22,National,0,Influenza-like illness,2808402,67
3.4082,06/06/2011,12/06/2011,2011,23,National,0,Influenza-like illness,2787383,95
2.8472,13/06/2011,19/06/2011,2011,24,National,0,Influenza-like illness,2809778,80
2.6664,20/06/2011,26/06/2011,2011,25,National,0,Influenza-like illness,2775245,74
2.2444,27/06/2011,03/07/2011,2011,26,National,0,Influenza-like illness,2806948,63
2.1434,04/07/2011,10/07/2011,2011,27,National,0,Influenza-like illness,2799307,60
2.6481,11/07/2011,17/07/2011,2011,28,National,0,Influenza-like illness,2756696,73
2.5499,18/07/2011,24/07/2011,2011,29,National,0,Influenza-like illness,2784459,71
2.3579,25/07/2011,31/07/2011,2011,30,National,0,Influenza-like illness,2841516,67
2.0902,01/08/2011,07/08/2011,2011,31,National,0,Influenza-like illness,2870520,60
1.9298,08/08/2011,14/08/2011,2011,32,National,0,Influenza-like illness,2850056,55
2.3494,15/08/2011,21/08/2011,2011,33,National,0,Influenza-like illness,2851791,67
2.444,22/08/2011,28/08/2011,2011,34,National,0,Influenza-like illness,2864143,70
2.3233,29/08/2011,04/09/2011,2011,35,National,0,Influenza-like illness,2883810,67
3.2399,05/09/2011,11/09/2011,2011,36,National,0,Influenza-like illness,2870488,93
3.526,12/09/2011,18/09/2011,2011,37,National,0,Influenza-like illness,2864452,101
3.9067,19/09/2011,25/09/2011,2011,38,National,0,Influenza-like illness,2841264,111
4.4328,26/09/2011,02/10/2011,2011,39,National,0,Influenza-like illness,2865006,127
4.8362,03/10/2011,09/10/2011,2011,40,National,0,Influenza-like illness,2791421,135
6.1299,10/10/2011,16/10/2011,2011,41,National,0,Influenza-like illness,2805898,172
5.9569,17/10/2011,23/10/2011,2011,42,National,0,Influenza-like illness,2853844,170
6.148,24/10/2011,30/10/2011,2011,43,National,0,Influenza-like illness,2830198,174
7.7678,31/10/2011,06/11/2011,2011,44,National,0,Influenza-like illness,2832188,220
6.8807,07/11/2011,13/11/2011,2011,45,National,0,Influenza-like illness,2892155,199
6.2449,14/11/2011,20/11/2011,2011,46,National,0,Influenza-like illness,2898348,181
7.5265,21/11/2011,27/11/2011,2011,47,National,0,Influenza-like illness,2856562,215
7.76,28/11/2011,04/12/2011,2011,48,National,0,Influenza-like illness,2822163,219
8.1205,05/12/2011,11/12/2011,2011,49,National,0,Influenza-like illness,2856960,232
8.1751,12/12/2011,18/12/2011,2011,50,National,0,Influenza-like illness,2837889,232
7.5565,19/12/2011,25/12/2011,2011,51,National,0,Influenza-like illness,2792306,211
5.8151,26/12/2011,01/01/2012,2011,52,National,0,Influenza-like illness,2889023,168
8.5484,02/01/2012,08/01/2012,2012,1,National,0,Influenza-like illness,2854322,244
8.6013,09/01/2012,15/01/2012,2012,2,National,0,Influenza-like illness,2848418,245
7.3144,16/01/2012,22/01/2012,2012,3,National,0,Influenza-like illness,2843722,208
6.5152,23/01/2012,29/01/2012,2012,4,National,0,Influenza-like illness,2870192,187
8.6598,30/01/2012,05/02/2012,2012,5,National,0,Influenza-like illness,2829149,245
9.6383,06/02/2012,12/02/2012,2012,6,National,0,Influenza-like illness,2894716,279
12.5341,13/02/2012,19/02/2012,2012,7,National,0,Influenza-like illness,2856206,358
11.6642,20/02/2012,26/02/2012,2012,8,National,0,Influenza-like illness,2880620,336
9.6481,27/02/2012,04/03/2012,2012,9,National,0,Influenza-like illness,2860655,276
8.2956,05/03/2012,11/03/2012,2012,10,National,0,Influenza-like illness,2893115,240
9.3905,12/03/2012,18/03/2012,2012,11,National,0,Influenza-like illness,2885894,271
8.1051,19/03/2012,25/03/2012,2012,12,National,0,Influenza-like illness,2887085,234
6.9483,26/03/2012,01/04/2012,2012,13,National,0,Influenza-like illness,2907189,202
5.5645,02/04/2012,08/04/2012,2012,14,National,0,Influenza-like illness,2929289,163
4.4888,09/04/2012,15/04/2012,2012,15,National,0,Influenza-like illness,2918385,131
4.9973,16/04/2012,22/04/2012,2012,16,National,0,Influenza-like illness,2921561,146
4.8624,23/04/2012,29/04/2012,2012,17,National,0,Influenza-like illness,2920363,142
4.697,30/04/2012,06/05/2012,2012,18,National,0,Influenza-like illness,2916774,137
3.7495,07/05/2012,13/05/2012,2012,19,National,0,Influenza-like illness,2987053,112
4.2937,14/05/2012,20/05/2012,2012,20,National,0,Influenza-like illness,2911211,125
3.4878,21/05/2012,27/05/2012,2012,21,National,0,Influenza-like illness,2953139,103
2.8172,28/05/2012,03/06/2012,2012,22,National,0,Influenza-like illness,3017176,85
2.0717,04/06/2012,10/06/2012,2012,23,National,0,Influenza-like illness,2992757,62
2.6016,11/06/2012,17/06/2012,2012,24,National,0,Influenza-like illness,3036572,79
2.8052,18/06/2012,24/06/2012,2012,25,National,0,Influenza-like illness,3030129,85
3.0367,25/06/2012,01/07/2012,2012,26,National,0,Influenza-like illness,2996651,91
3.2486,02/07/2012,08/07/2012,2012,27,National,0,Influenza-like illness,2985905,97
2.9532,09/07/2012,15/07/2012,2012,28,National,0,Influenza-like illness,2979865,88
2.9319,16/07/2012,22/07/2012,2012,29,National,0,Influenza-like illness,3001441,88
2.3737,23/07/2012,29/07/2012,2012,30,National,0,Influenza-like illness,3075423,73
2.092,30/07/2012,05/08/2012,2012,31,National,0,Influenza-like illness,3059290,64
2.4237,06/08/2012,12/08/2012,2012,32,National,0,Influenza-like illness,3053237,74
2.1365,13/08/2012,19/08/2012,2012,33,National,0,Influenza-like illness,3089141,66
2.1533,20/08/2012,26/08/2012,2012,34,National,0,Influenza-like illness,3065117,66
1.8952,27/08/2012,02/09/2012,2012,35,National,0,Influenza-like illness,3060307,58
2.767,03/09/2012,09/09/2012,2012,36,National,0,Influenza-like illness,3071872,85
2.0971,10/09/2012,16/09/2012,2012,37,National,0,Influenza-like illness,3099559,65
3.7972,17/09/2012,23/09/2012,2012,38,National,0,Influenza-like illness,3081253,117
5.07,24/09/2012,30/09/2012,2012,39,National,0,Influenza-like illness,3057197,155
5.1897,01/10/2012,07/10/2012,2012,40,National,0,Influenza-like illness,3063770,159
6.5479,08/10/2012,14/10/2012,2012,41,National,0,Influenza-like illness,3054393,200
4.9659,15/10/2012,21/10/2012,2012,42,National,0,Influenza-like illness,3060872,152
6.4197,22/10/2012,28/10/2012,2012,43,National,0,Influenza-like illness,3021946,194
5.5015,29/10/2012,04/11/2012,2012,44,National,0,Influenza-like illness,3090041,170
6.6114,05/11/2012,11/11/2012,2012,45,National,0,Influenza-like illness,3070471,203
6.4079,12/11/2012,18/11/2012,2012,46,National,0,Influenza-like illness,3058713,196
6.4573,19/11/2012,25/11/2012,2012,47,National,0,Influenza-like illness,3035329,196
7.0518,26/11/2012,02/12/2012,2012,48,National,0,Influenza-like illness,3077208,217
8.29,03/12/2012,09/12/2012,2012,49,National,0,Influenza-like illness,3051873,253
11.8725,10/12/2012,16/12/2012,2012,50,National,0,Influenza-like illness,3091170,367
18.4598,17/12/2012,23/12/2012,2012,51,National,0,Influenza-like illness,3066120,566
17.011,24/12/2012,30/12/2012,2012,52,National,0,Influenza-like illness,3068608,522
24.4812,31/12/2012,06/01/2013,2013,1,National,0,Influenza-like illness,3177951,778
22.4815,07/01/2013,13/01/2013,2013,2,National,0,Influenza-like illness,3171500,713
13.7298,14/01/2013,20/01/2013,2013,3,National,0,Influenza-like illness,3131870,430
14.2682,21/01/2013,27/01/2013,2013,4,National,0,Influenza-like illness,3104796,443
18.3611,28/01/2013,03/02/2013,2013,5,National,0,Influenza-like illness,3126170,574
15.6947,04/02/2013,10/02/2013,2013,6,National,0,Influenza-like illness,3134821,492
15.8005,11/02/2013,17/02/2013,2013,7,National,0,Influenza-like illness,3158122,499
15.9632,18/02/2013,24/02/2013,2013,8,National,0,Influenza-like illness,3125942,499
14.6343,25/02/2013,03/03/2013,2013,9,National,0,Influenza-like illness,3156964,462
13.3424,04/03/2013,10/03/2013,2013,10,National,0,Influenza-like illness,3125384,417
10.801,11/03/2013,17/03/2013,2013,11,National,0,Influenza-like illness,3120068,337
10.0659,18/03/2013,24/03/2013,2013,12,National,0,Influenza-like illness,3129362,315
6.4707,25/03/2013,31/03/2013,2013,13,National,0,Influenza-like illness,3121777,202
7.5736,01/04/2013,07/04/2013,2013,14,National,0,Influenza-like illness,3155701,239
7.6451,08/04/2013,14/04/2013,2013,15,National,0,Influenza-like illness,3113098,238
6.0428,15/04/2013,21/04/2013,2013,16,National,0,Influenza-like illness,3127710,189
4.0394,22/04/2013,28/04/2013,2013,17,National,0,Influenza-like illness,3168813,128
3.6441,29/04/2013,05/05/2013,2013,18,National,0,Influenza-like illness,3155747,115
2.8655,06/05/2013,12/05/2013,2013,19,National,0,Influenza-like illness,3175720,91
3.3197,13/05/2013,19/05/2013,2013,20,National,0,Influenza-like illness,3193031,106
3.4584,20/05/2013,26/05/2013,2013,21,National,0,Influenza-like illness,3209592,111
1.9025,27/05/2013,02/06/2013,2013,22,National,0,Influenza-like illness,3153734,60
2.7944,03/06/2013,09/06/2013,2013,23,National,0,Influenza-like illness,3184988,89
2.0872,10/06/2013,16/06/2013,2013,24,National,0,Influenza-like illness,3162119,66
2.3601,17/06/2013,23/06/2013,2013,25,National,0,Influenza-like illness,3220183,76
2.1633,24/06/2013,30/06/2013,2013,26,National,0,Influenza-like illness,3189504,69
2.2296,01/07/2013,07/07/2013,2013,27,National,0,Influenza-like illness,3229259,72
1.6745,08/07/2013,14/07/2013,2013,28,National,0,Influenza-like illness,3165184,53
1.6234,15/07/2013,21/07/2013,2013,29,National,0,Influenza-like illness,3203224,52
1.6736,22/07/2013,28/07/2013,2013,30,National,0,Influenza-like illness,3166860,53
1.7233,29/07/2013,04/08/2013,2013,31,National,0,Influenza-like illness,3191621,55
1.6314,05/08/2013,11/08/2013,2013,32,National,0,Influenza-like illness,3187496,52
2.0625,12/08/2013,18/08/2013,2013,33,National,0,Influenza-like illness,3200008,66
1.8658,19/08/2013,25/08/2013,2013,34,National,0,Influenza-like illness,3215729,60
0.9906,26/08/2013,01/09/2013,2013,35,National,0,Influenza-like illness,3230207,32
1.8777,02/09/2013,08/09/2013,2013,36,National,0,Influenza-like illness,3195461,60
2.2386,09/09/2013,15/09/2013,2013,37,National,0,Influenza-like illness,3216244,72
3.2929,16/09/2013,22/09/2013,2013,38,National,0,Influenza-like illness,3158355,104
4.3829,23/09/2013,29/09/2013,2013,39,National,0,Influenza-like illness,3171407,139
4.6882,30/09/2013,06/10/2013,2013,40,National,0,Influenza-like illness,3156844,148
5.2036,07/10/2013,13/10/2013,2013,41,National,0,Influenza-like illness,3132444,163
5.6516,14/10/2013,20/10/2013,2013,42,National,0,Influenza-like illness,3131877,177
5.448,21/10/2013,27/10/2013,2013,43,National,0,Influenza-like illness,3157143,172
5.0923,28/10/2013,03/11/2013,2013,44,National,0,Influenza-like illness,3161625,161
5.2627,04/11/2013,10/11/2013,2013,45,National,0,Influenza-like illness,3135263,165
5.8745,11/11/2013,17/11/2013,2013,46,National,0,Influenza-like illness,3149215,185
6.0334,18/11/2013,24/11/2013,2013,47,National,0,Influenza-like illness,3082850,186
6.3687,25/11/2013,01/12/2013,2013,48,National,0,Influenza-like illness,3171758,202
6.7177,02/12/2013,08/12/2013,2013,49,National,0,Influenza-like illness,3215373,216
7.2351,09/12/2013,15/12/2013,2013,50,National,0,Influenza-like illness,3165113,229
6.3977,16/12/2013,22/12/2013,2013,51,National,0,Influenza-like illness,3204253,205
4.5444,23/12/2013,29/12/2013,2013,52,National,0,Influenza-like illness,3190767,145
7.7745,30/12/2013,05/01/2014,2014,1,National,0,Influenza-like illness,3228519,251
8.9511,06/01/2014,12/01/2014,2014,2,National,0,Influenza-like illness,3228669,289
7.4398,13/01/2014,19/01/2014,2014,3,National,0,Influenza-like illness,3199030,238
6.4559,20/01/2014,26/01/2014,2014,4,National,0,Influenza-like illness,3237363,209
7.551,27/01/2014,02/02/2014,2014,5,National,0,Influenza-like illness,3284312,248
9.4212,03/02/2014,09/02/2014,2014,6,National,0,Influenza-like illness,3216139,303
9.6594,10/02/2014,16/02/2014,2014,7,National,0,Influenza-like illness,3250703,314
10.3387,17/02/2014,23/02/2014,2014,8,National,0,Influenza-like illness,3211237,332
9.7739,24/02/2014,02/03/2014,2014,9,National,0,Influenza-like illness,3263788,319
7.4086,03/03/2014,09/03/2014,2014,10,National,0,Influenza-like illness,3252976,241
7.0699,10/03/2014,16/03/2014,2014,11,National,0,Influenza-like illness,3239087,229
6.842,17/03/2014,23/03/2014,2014,12,National,0,Influenza-like illness,3215440,220
6.979,24/03/2014,30/03/2014,2014,13,National,0,Influenza-like illness,3238264,226
6.3495,31/03/2014,06/04/2014,2014,14,National,0,Influenza-like illness,3244351,206
4.773,07/04/2014,13/04/2014,2014,15,National,0,Influenza-like illness,3205498,153
3.6095,14/04/2014,20/04/2014,2014,16,National,0,Influenza-like illness,3269168,118
3.7805,21/04/2014,27/04/2014,2014,17,National,0,Influenza-like illness,3332906,126
4.5601,28/04/2014,04/05/2014,2014,18,National,0,Influenza-like illness,3267472,149
2.5065,05/05/2014,11/05/2014,2014,19,National,0,Influenza-like illness,3271511,82
3.0831,12/05/2014,18/05/2014,2014,20,National,0,Influenza-like illness,3340836,103
3.1949,19/05/2014,25/05/2014,2014,21,National,0,Influenza-like illness,3317831,106
2.0342,26/05/2014,01/06/2014,2014,22,National,0,Influenza-like illness,3342895,68
3.3186,02/06/2014,08/06/2014,2014,23,National,0,Influenza-like illness,3314617,110
2.1596,09/06/2014,15/06/2014,2014,24,National,0,Influenza-like illness,3287597,71
2.0303,16/06/2014,22/06/2014,2014,25,National,0,Influenza-like illness,3349341,68
2.4292,23/06/2014,29/06/2014,2014,26,National,0,Influenza-like illness,3416729,83
2.168,30/06/2014,06/07/2014,2014,27,National,0,Influenza-like illness,3459341,75
2.3998,07/07/2014,13/07/2014,2014,28,National,0,Influenza-like illness,3458618,83
2.2856,14/07/2014,20/07/2014,2014,29,National,0,Influenza-like illness,3456401,79
1.6877,21/07/2014,27/07/2014,2014,30,National,0,Influenza-like illness,3495853,59
1.5764,28/07/2014,03/08/2014,2014,31,National,0,Influenza-like illness,3488878,55
1.5761,04/08/2014,10/08/2014,2014,32,National,0,Influenza-like illness,3489715,55
1.5691,11/08/2014,17/08/2014,2014,33,National,0,Influenza-like illness,3505175,55
1.6834,18/08/2014,24/08/2014,2014,34,National,0,Influenza-like illness,3564153,60
2.307,25/08/2014,31/08/2014,2014,35,National,0,Influenza-like illness,3510982,81
2.8405,01/09/2014,07/09/2014,2014,36,National,0,Influenza-like illness,3485348,99
3.4127,08/09/2014,14/09/2014,2014,37,National,0,Influenza-like illness,3516322,120
3.2779,15/09/2014,21/09/2014,2014,38,National,0,Influenza-like illness,3477838,114
4.1361,22/09/2014,28/09/2014,2014,39,National,0,Influenza-like illness,3433177,142
4.3679,29/09/2014,05/10/2014,2014,40,National,0,Influenza-like illness,3457000,151
5.1761,06/10/2014,12/10/2014,2014,41,National,0,Influenza-like illness,3458204,179
6.3682,13/10/2014,19/10/2014,2014,42,National,0,Influenza-like illness,3438939,219
5.4269,20/10/2014,26/10/2014,2014,43,National,0,Influenza-like illness,3482661,189
5.052,27/10/2014,02/11/2014,2014,44,National,0,Influenza-like illness,3463943,175
5.3257,03/11/2014,09/11/2014,2014,45,National,0,Influenza-like illness,3454975,184
5.7301,10/11/2014,16/11/2014,2014,46,National,0,Influenza-like illness,3490330,200
6.1092,17/11/2014,23/11/2014,2014,47,National,0,Influenza-like illness,3470192,212
6.9346,24/11/2014,30/11/2014,2014,48,National,0,Influenza-like illness,3475348,241
9.6091,01/12/2014,07/12/2014,2014,49,National,0,Influenza-like illness,3465480,333
11.7844,08/12/2014,14/12/2014,2014,50,National,0,Influenza-like illness,3470685,409
18.1845,15/12/2014,21/12/2014,2014,51,National,0,Influenza-like illness,3453495,628
12.6926,22/12/2014,28/12/2014,2014,52,National,0,Influenza-like illness,3403568,432
19.3947,29/12/2014,04/01/2015,2015,1,National,0,Influenza-like illness,3428776,665
22.4037,05/01/2015,11/01/2015,2015,2,National,0,Influenza-like illness,3419071,766
15.5987,12/01/2015,18/01/2015,2015,3,National,0,Influenza-like illness,3423368,534
13.3952,19/01/2015,25/01/2015,2015,4,National,0,Influenza-like illness,3411661,457
12.7703,26/01/2015,01/02/2015,2015,5,National,0,Influenza-like illness,3437669,439
12.7545,02/02/2015,08/02/2015,2015,6,National,0,Influenza-like illness,3434074,438
17.0645,09/02/2015,15/02/2015,2015,7,National,0,Influenza-like illness,3434033,586
13.3716,16/02/2015,22/02/2015,2015,8,National,0,Influenza-like illness,3455080,462
13.6858,23/02/2015,01/03/2015,2015,9,National,0,Influenza-like illness,3404990,466
11.976,02/03/2015,08/03/2015,2015,10,National,0,Influenza-like illness,3448571,413
10.9001,09/03/2015,15/03/2015,2015,11,National,0,Influenza-like illness,3477041,379
11.1133,16/03/2015,22/03/2015,2015,12,National,0,Influenza-like illness,3437319,382
11.2541,23/03/2015,29/03/2015,2015,13,National,0,Influenza-like illness,3465403,390
10.1019,30/03/2015,05/04/2015,2015,14,National,0,Influenza-like illness,3593397,363
8.2197,06/04/2015,12/04/2015,2015,15,National,0,Influenza-like illness,3515958,289
7.1223,13/04/2015,19/04/2015,2015,16,National,0,Influenza-like illness,3524155,251
5.0883,20/04/2015,26/04/2015,2015,17,National,0,Influenza-like illness,3576816,182
5.0194,27/04/2015,03/05/2015,2015,18,National,0,Influenza-like illness,3606000,181
3.7754,04/05/2015,10/05/2015,2015,19,National,0,Influenza-like illness,3602280,136
3.5876,11/05/2015,17/05/2015,2015,20,National,0,Influenza-like illness,3595755,129
3.6406,18/05/2015,24/05/2015,2015,21,National,0,Influenza-like illness,3653269,133
2.3991,25/05/2015,31/05/2015,2015,22,National,0,Influenza-like illness,3626318,87
3.0718,01/06/2015,07/06/2015,2015,23,National,0,Influenza-like illness,3678654,113
2.417,08/06/2015,14/06/2015,2015,24,National,0,Influenza-like illness,3640850,88
2.8569,15/06/2015,21/06/2015,2015,25,National,0,Influenza-like illness,3675371,105
2.1148,22/06/2015,28/06/2015,2015,26,National,0,Influenza-like illness,3688335,78
2.0319,29/06/2015,05/07/2015,2015,27,National,0,Influenza-like illness,3691050,75
1.5777,06/07/2015,12/07/2015,2015,28,National,0,Influenza-like illness,3676345,58
1.5389,13/07/2015,19/07/2015,2015,29,National,0,Influenza-like illness,3703934,57
1.5366,20/07/2015,26/07/2015,2015,30,National,0,Influenza-like illness,3709456,57
1.9197,27/07/2015,02/08/2015,2015,31,National,0,Influenza-like illness,3750645,72
1.6384,03/08/2015,09/08/2015,2015,32,National,0,Influenza-like illness,3723092,61
1.5608,10/08/2015,16/08/2015,2015,33,National,0,Influenza-like illness,3716088,58
2.0721,17/08/2015,23/08/2015,2015,34,National,0,Influenza-like illness,3764233,78
1.3681,24/08/2015,30/08/2015,2015,35,National,0,Influenza-like illness,3727693,51
1.9155,31/08/2015,06/09/2015,2015,36,National,0,Influenza-like illness,3758890,72
2.1574,07/09/2015,13/09/2015,2015,37,National,0,Influenza-like illness,3754466,81
3.3422,14/09/2015,20/09/2015,2015,38,National,0,Influenza-like illness,3710095,124
3.9751,21/09/2015,27/09/2015,2015,39,National,0,Influenza-like illness,3672900,146
5.1588,28/09/2015,04/10/2015,2015,40,National,0,Influenza-like illness,3702396,191
5.2117,05/10/2015,11/10/2015,2015,41,National,0,Influenza-like illness,3722376,194
6.0809,12/10/2015,18/10/2015,2015,42,National,0,Influenza-like illness,3700123,225
5.9005,19/10/2015,25/10/2015,2015,43,National,0,Influenza-like illness,3711577,219
5.5091,26/10/2015,01/11/2015,2015,44,National,0,Influenza-like illness,3721100,205
5.6863,02/11/2015,08/11/2015,2015,45,National,0,Influenza-like illness,3728251,212
5.6082,09/11/2015,15/11/2015,2015,46,National,0,Influenza-like illness,3708866,208
5.7403,16/11/2015,22/11/2015,2015,47,National,0,Influenza-like illness,3710623,213
6.5441,23/11/2015,29/11/2015,2015,48,National,0,Influenza-like illness,3728548,244
7.0292,30/11/2015,06/12/2015,2015,49,National,0,Influenza-like illness,3713079,261
7.8172,07/12/2015,13/12/2015,2015,50,National,0,Influenza-like illness,3748164,293
8.0678,14/12/2015,20/12/2015,2015,51,National,0,Influenza-like illness,3693693,298
6.262,21/12/2015,27/12/2015,2015,52,National,0,Influenza-like illness,3784713,237
6.1629,28/12/2015,03/01/2016,2015,53,National,0,Influenza-like illness,3861795,238
11.591,04/01/2016,10/01/2016,2016,1,National,0,Influenza-like illness,3796056,440
10.6998,11/01/2016,17/01/2016,2016,2,National,0,Influenza-like illness,3747719,401
12.8878,18/01/2016,24/01/2016,2016,3,National,0,Influenza-like illness,3763247,485
16.7717,25/01/2016,31/01/2016,2016,4,National,0,Influenza-like illness,3780171,634
15.9494,01/02/2016,07/02/2016,2016,5,National,0,Influenza-like illness,3774444,602
16.2174,08/02/2016,14/02/2016,2016,6,National,0,Influenza-like illness,3767567,611
15.5521,15/02/2016,21/02/2016,2016,7,National,0,Influenza-like illness,3761550,585
16.0614,22/02/2016,28/02/2016,2016,8,National,0,Influenza-like illness,3773022,606
17.8458,29/02/2016,06/03/2016,2016,9,National,0,Influenza-like illness,3782400,675
19.2086,07/03/2016,13/03/2016,2016,10,National,0,Influenza-like illness,3769141,724
23.9065,14/03/2016,20/03/2016,2016,11,National,0,Influenza-like illness,3789768,906
19.4301,21/03/2016,27/03/2016,2016,12,National,0,Influenza-like illness,3839395,746
16.8608,28/03/2016,03/04/2016,2016,13,National,0,Influenza-like illness,3807655,642
14.404,04/04/2016,10/04/2016,2016,14,National,0,Influenza-like illness,3860039,556
11.5857,11/04/2016,17/04/2016,2016,15,National,0,Influenza-like illness,3806431,441
7.9737,18/04/2016,24/04/2016,2016,16,National,0,Influenza-like illness,3825077,305
6.6746,25/04/2016,01/05/2016,2016,17,National,0,Influenza-like illness,3865429,258
5.0426,02/05/2016,08/05/2016,2016,18,National,0,Influenza-like illness,3807594,192
4.8212,09/05/2016,15/05/2016,2016,19,National,0,Influenza-like illness,3878672,187
4.2542,16/05/2016,22/05/2016,2016,20,National,0,Influenza-like illness,3854974,164
2.9136,23/05/2016,29/05/2016,2016,21,National,0,Influenza-like illness,3912671,114
2.7744,30/05/2016,05/06/2016,2016,22,National,0,Influenza-like illness,3856714,107
2.6996,06/06/2016,12/06/2016,2016,23,National,0,Influenza-like illness,3889499,105
2.4042,13/06/2016,19/06/2016,2016,24,National,0,Influenza-like illness,3868279,93
2.1555,20/06/2016,26/06/2016,2016,25,National,0,Influenza-like illness,3804289,82
2.4233,27/06/2016,03/07/2016,2016,26,National,0,Influenza-like illness,3879081,94
2.6154,04/07/2016,10/07/2016,2016,27,National,0,Influenza-like illness,3900005,102
2.8633,11/07/2016,17/07/2016,2016,28,National,0,Influenza-like illness,3876703,111
2.1855,18/07/2016,24/07/2016,2016,29,National,0,Influenza-like illness,3889228,85
2.1829,25/07/2016,31/07/2016,2016,30,National,0,Influenza-like illness,3893974,85
2.0582,01/08/2016,07/08/2016,2016,31,National,0,Influenza-like illness,3886949,80
2.0667,08/08/2016,14/08/2016,2016,32,National,0,Influenza-like illness,3919321,81
2.1117,15/08/2016,21/08/2016,2016,33,National,0,Influenza-like illness,3930512,83
1.4451,22/08/2016,28/08/2016,2016,34,National,0,Influenza-like illness,3944384,57
1.9933,29/08/2016,04/09/2016,2016,35,National,0,Influenza-like illness,3913086,78
1.989,05/09/2016,11/09/2016,2016,36,National,0,Influenza-like illness,3921574,78
2.2119,12/09/2016,18/09/2016,2016,37,National,0,Influenza-like illness,3933199,87
3.2352,19/09/2016,25/09/2016,2016,38,National,0,Influenza-like illness,3925604,127
5.2587,26/09/2016,02/10/2016,2016,39,National,0,Influenza-like illness,3974332,209
4.9057,03/10/2016,09/10/2016,2016,40,National,0,Influenza-like illness,3954600,194
6.7935,10/10/2016,16/10/2016,2016,41,National,0,Influenza-like illness,3959682,269
5.7527,17/10/2016,23/10/2016,2016,42,National,0,Influenza-like illness,3928565,226
7.2519,24/10/2016,30/10/2016,2016,43,National,0,Influenza-like illness,3998945,290
6.4786,31/10/2016,06/11/2016,2016,44,National,0,Influenza-like illness,3966897,257
6.3542,07/11/2016,13/11/2016,2016,45,National,0,Influenza-like illness,3934428,250
6.2958,14/11/2016,20/11/2016,2016,46,National,0,Influenza-like illness,3955046,249
6.9537,21/11/2016,27/11/2016,2016,47,National,0,Influenza-like illness,3897219,271
6.9911,28/11/2016,04/12/2016,2016,48,National,0,Influenza-like illness,3962184,277
8.5151,05/12/2016,11/12/2016,2016,49,National,0,Influenza-like illness,3934195,335
10.9832,12/12/2016,18/12/2016,2016,50,National,0,Influenza-like illness,3978821,437
12.295,19/12/2016,25/12/2016,2016,51,National,0,Influenza-like illness,3895891,479
11.3996,26/12/2016,01/01/2017,2016,52,National,0,Influenza-like illness,4000144,456
14.715,02/01/2017,08/01/2017,2017,1,National,0,Influenza-like illness,3914373,576
16.5982,09/01/2017,15/01/2017,2017,2,National,0,Influenza-like illness,3940193,654
14.2748,16/01/2017,22/01/2017,2017,3,National,0,Influenza-like illness,3965023,566
14.4051,23/01/2017,29/01/2017,2017,4,National,0,Influenza-like illness,3977771,573
14.8803,30/01/2017,05/02/2017,2017,5,National,0,Influenza-like illness,3985142,593
12.9096,06/02/2017,12/02/2017,2017,6,National,0,Influenza-like illness,3981544,514
9.7336,13/02/2017,19/02/2017,2017,7,National,0,Influenza-like illness,3975902,387
8.1072,20/02/2017,26/02/2017,2017,8,National,0,Influenza-like illness,4008774,325
6.2396,27/02/2017,05/03/2017,2017,9,National,0,Influenza-like illness,4022668,251
5.7246,06/03/2017,12/03/2017,2017,10,National,0,Influenza-like illness,4035204,231
4.6992,13/03/2017,19/03/2017,2017,11,National,0,Influenza-like illness,4000657,188
4.635,20/03/2017,26/03/2017,2017,12,National,0,Influenza-like illness,4056080,188
4.6694,27/03/2017,02/04/2017,2017,13,National,0,Influenza-like illness,4026174,188
3.5554,03/04/2017,09/04/2017,2017,14,National,0,Influenza-like illness,4050204,144
2.165,10/04/2017,16/04/2017,2017,15,National,0,Influenza-like illness,4110823,89
2.9479,17/04/2017,23/04/2017,2017,16,National,0,Influenza-like illness,4036747,119
2.9503,24/04/2017,30/04/2017,2017,17,National,0,Influenza-like illness,4067411,120
2.8264,01/05/2017,07/05/2017,2017,18,National,0,Influenza-like illness,4139566,117
3.9405,08/05/2017,14/05/2017,2017,19,National,0,Influenza-like illness,4060393,160
3.5622,15/05/2017,21/05/2017,2017,20,National,0,Influenza-like illness,4098643,146
2.2224,22/05/2017,28/05/2017,2017,21,National,0,Influenza-like illness,4094661,91
1.7392,29/05/2017,04/06/2017,2017,22,National,0,Influenza-like illness,4139939,72
1.9155,05/06/2017,11/06/2017,2017,23,National,0,Influenza-like illness,4072068,78
2.0796,12/06/2017,18/06/2017,2017,24,National,0,Influenza-like illness,4087295,85
1.0424,19/06/2017,25/06/2017,2017,25,National,0,Influenza-like illness,4125288,43
1.7514,26/06/2017,02/07/2017,2017,26,National,0,Influenza-like illness,4168076,73
1.9739,03/07/2017,09/07/2017,2017,27,National,0,Influenza-like illness,4154313,82
1.8294,10/07/2017,16/07/2017,2017,28,National,0,Influenza-like illness,4154305,76
1.8181,17/07/2017,23/07/2017,2017,29,National,0,Influenza-like illness,4180093,76
1.9029,24/07/2017,30/07/2017,2017,30,National,0,Influenza-like illness,4099016,78
2.2682,31/07/2017,06/08/2017,2017,31,National,0,Influenza-like illness,4144170,94
1.7705,07/08/2017,13/08/2017,2017,32,National,0,Influenza-like illness,4179684,74
2.1094,14/08/2017,20/08/2017,2017,33,National,0,Influenza-like illness,4124304,87
1.6063,21/08/2017,27/08/2017,2017,34,National,0,Influenza-like illness,4171000,67
1.7897,28/08/2017,03/09/2017,2017,35,National,0,Influenza-like illness,4190655,75
2.2216,04/09/2017,10/09/2017,2017,36,National,0,Influenza-like illness,4141094,92
2.573,11/09/2017,17/09/2017,2017,37,National,0,Influenza-like illness,4119669,106
3.6594,18/09/2017,24/09/2017,2017,38,National,0,Influenza-like illness,4153730,152
4.3145,25/09/2017,01/10/2017,2017,39,National,0,Influenza-like illness,4148772,179
5.6604,02/10/2017,08/10/2017,2017,40,National,0,Influenza-like illness,4169325,236
5.9584,09/10/2017,15/10/2017,2017,41,National,0,Influenza-like illness,4145402,247
5.1445,16/10/2017,22/10/2017,2017,42,National,0,Influenza-like illness,4198668,216
4.5524,23/10/2017,29/10/2017,2017,43,National,0,Influenza-like illness,4195612,191
4.8049,30/10/2017,05/11/2017,2017,44,National,0,Influenza-like illness,4224826,203
5.5943,06/11/2017,12/11/2017,2017,45,National,0,Influenza-like illness,4272212,239
4.9106,13/11/2017,19/11/2017,2017,46,National,0,Influenza-like illness,4256059,209
6.7082,20/11/2017,26/11/2017,2017,47,National,0,Influenza-like illness,4233623,284
7.2546,27/11/2017,03/12/2017,2017,48,National,0,Influenza-like illness,4259341,309
8.1565,04/12/2017,10/12/2017,2017,49,National,0,Influenza-like illness,4205246,343
11.3239,11/12/2017,17/12/2017,2017,50,National,0,Influenza-like illness,4265304,483
16.2849,18/12/2017,24/12/2017,2017,51,National,0,Influenza-like illness,4243190,691
19.0458,25/12/2017,31/12/2017,2017,52,National,0,Influenza-like illness,4273906,814
37.6173,01/01/2018,07/01/2018,2018,1,National,0,Influenza-like illness,4330449,1629
55.062,08/01/2018,14/01/2018,2018,2,National,0,Influenza-like illness,4242487,2336
52.2365,15/01/2018,21/01/2018,2018,3,National,0,Influenza-like illness,4299677,2246
49.9252,22/01/2018,28/01/2018,2018,4,National,0,Influenza-like illness,4266386,2130
37.8223,29/01/2018,04/02/2018,2018,5,National,0,Influenza-like illness,4291123,1623
30.5037,05/02/2018,11/02/2018,2018,6,National,0,Influenza-like illness,4294560,1310
28.0313,12/02/2018,18/02/2018,2018,7,National,0,Influenza-like illness,4288060,1202
28.4285,19/02/2018,25/02/2018,2018,8,National,0,Influenza-like illness,4291469,1220
19.0986,26/02/2018,04/03/2018,2018,9,National,0,Influenza-like illness,4387747,838
20.7761,05/03/2018,11/03/2018,2018,10,National,0,Influenza-like illness,4278957,889
17.4298,12/03/2018,18/03/2018,2018,11,National,0,Influenza-like illness,4285762,747
13.5734,19/03/2018,25/03/2018,2018,12,National,0,Influenza-like illness,4332005,588
9.3666,26/03/2018,01/04/2018,2018,13,National,0,Influenza-like illness,4377235,410
8.1572,02/04/2018,08/04/2018,2018,14,National,0,Influenza-like illness,4413266,360
8.1552,09/04/2018,15/04/2018,2018,15,National,0,Influenza-like illness,4377551,357
4.9884,16/04/2018,22/04/2018,2018,16,National,0,Influenza-like illness,4390225,219
3.0001,23/04/2018,29/04/2018,2018,17,National,0,Influenza-like illness,4433123,133
2.791,30/04/2018,06/05/2018,2018,18,National,0,Influenza-like illness,4442912,124
2.2556,07/05/2018,13/05/2018,2018,19,National,0,Influenza-like illness,4433425,100
2.5283,14/05/2018,20/05/2018,2018,20,National,0,Influenza-like illness,4429860,112
2.2107,21/05/2018,27/05/2018,2018,21,National,0,Influenza-like illness,4432972,98
1.301,28/05/2018,03/06/2018,2018,22,National,0,Influenza-like illness,4535096,59
1.4594,04/06/2018,10/06/2018,2018,23,National,0,Influenza-like illness,4453931,65
1.4584,11/06/2018,17/06/2018,2018,24,National,0,Influenza-like illness,4388345,64
1.8727,18/06/2018,24/06/2018,2018,25,National,0,Influenza-like illness,4378598,82
1.5355,25/06/2018,01/07/2018,2018,26,National,0,Influenza-like illness,4493739,69
1.3755,02/07/2018,08/07/2018,2018,27,National,0,Influenza-like illness,4507534,62
0.961,09/07/2018,15/07/2018,2018,28,National,0,Influenza-like illness,4474288,43
1.4158,16/07/2018,22/07/2018,2018,29,National,0,Influenza-like illness,4449861,63
1.2939,23/07/2018,29/07/2018,2018,30,National,0,Influenza-like illness,4482455,58
1.1659,30/07/2018,05/08/2018,2018,31,National,0,Influenza-like illness,4545801,53
1.4817,06/08/2018,12/08/2018,2018,32,National,0,Influenza-like illness,4521754,67
1.011,13/08/2018,19/08/2018,2018,33,National,0,Influenza-like illness,4549932,46
1.412,20/08/2018,26/08/2018,2018,34,National,0,Influenza-like illness,4532506,64
1.3078,27/08/2018,02/09/2018,2018,35,National,0,Influenza-like illness,4587916,60
1.7577,03/09/2018,09/09/2018,2018,36,National,0,Influenza-like illness,4608317,81
1.9947,10/09/2018,16/09/2018,2018,37,National,0,Influenza-like illness,4612163,92
2.9078,17/09/2018,23/09/2018,2018,38,National,0,Influenza-like illness,4539469,132
3.1865,24/09/2018,30/09/2018,2018,39,National,0,Influenza-like illness,4550514,145
4.1051,01/10/2018,07/10/2018,2018,40,National,0,Influenza-like illness,4604021,189
4.0915,08/10/2018,14/10/2018,2018,41,National,0,Influenza-like illness,4594857,188
4.3437,15/10/2018,21/10/2018,2018,42,National,0,Influenza-like illness,4581355,199
3.8011,22/10/2018,28/10/2018,2018,43,National,0,Influenza-like illness,4603889,175
4.4855,29/10/2018,04/11/2018,2018,44,National,0,Influenza-like illness,4592567,206
4.4293,05/11/2018,11/11/2018,2018,45,National,0,Influenza-like illness,4583096,203
4.6221,12/11/2018,18/11/2018,2018,46,National,0,Influenza-like illness,4586627,212
5.8495,19/11/2018,25/11/2018,2018,47,National,0,Influenza-like illness,4581608,268
6.7291,26/11/2018,02/12/2018,2018,48,National,0,Influenza-like illness,4606831,310
6.8319,03/12/2018,09/12/2018,2018,49,National,0,Influenza-like illness,4581426,313
7.0088,10/12/2018,16/12/2018,2018,50,National,0,Influenza-like illness,4608469,323
9.961,17/12/2018,23/12/2018,2018,51,National,0,Influenza-like illness,4597955,458
8.8679,24/12/2018,30/12/2018,2018,52,National,0,Influenza-like illness,4691087,416
14.5624,31/12/2018,06/01/2019,2019,1,National,0,Influenza-like illness,4621490,673
20.2839,07/01/2019,13/01/2019,2019,2,National,0,Influenza-like illness,4545475,922
18.7632,14/01/2019,20/01/2019,2019,3,National,0,Influenza-like illness,4594095,862
19.6027,21/01/2019,27/01/2019,2019,4,National,0,Influenza-like illness,4626915,907
21.5737,28/01/2019,03/02/2019,2019,5,National,0,Influenza-like illness,4542561,980
24.7881,04/02/2019,10/02/2019,2019,6,National,0,Influenza-like illness,4611091,1143
20.9135,11/02/2019,17/02/2019,2019,7,National,0,Influenza-like illness,4537736,949
17.2308,18/02/2019,24/02/2019,2019,8,National,0,Influenza-like illness,4579004,789
11.9499,25/02/2019,03/03/2019,2019,9,National,0,Influenza-like illness,4594174,549
9.4508,04/03/2019,10/03/2019,2019,10,National,0,Influenza-like illness,4602768,435
7.5742,11/03/2019,17/03/2019,2019,11,National,0,Influenza-like illness,4634159,351
6.7723,18/03/2019,24/03/2019,2019,12,National,0,Influenza-like illness,4606994,312
6.0746,25/03/2019,31/03/2019,2019,13,National,0,Influenza-like illness,4642291,282
5.1825,01/04/2019,07/04/2019,2019,14,National,0,Influenza-like illness,4592416,238
4.7156,08/04/2019,14/04/2019,2019,15,National,0,Influenza-like illness,4644186,219
3.3527,15/04/2019,21/04/2019,2019,16,National,0,Influenza-like illness,4742504,159
2.7626,22/04/2019,28/04/2019,2019,17,National,0,Influenza-like illness,4778144,132
3.5021,29/04/2019,05/05/2019,2019,18,National,0,Influenza-like illness,4711439,165
2.6089,06/05/2019,12/05/2019,2019,19,National,0,Influenza-like illness,4714686,123
2.6303,13/05/2019,19/05/2019,2019,20,National,0,Influenza-like illness,4752319,125
2.2802,20/05/2019,26/05/2019,2019,21,National,0,Influenza-like illness,4736418,108
2.0082,27/05/2019,02/06/2019,2019,22,National,0,Influenza-like illness,4879931,98
1.9045,03/06/2019,09/06/2019,2019,23,National,0,Influenza-like illness,4778040,91
2.1702,10/06/2019,16/06/2019,2019,24,National,0,Influenza-like illness,4792075,104
1.8106,17/06/2019,23/06/2019,2019,25,National,0,Influenza-like illness,4749848,86
1.859,24/06/2019,30/06/2019,2019,26,National,0,Influenza-like illness,4787419,89
1.3045,01/07/2019,07/07/2019,2019,27,National,0,Influenza-like illness,4752951,62
1.4042,08/07/2019,14/07/2019,2019,28,National,0,Influenza-like illness,4771265,67
1.4632,15/07/2019,21/07/2019,2019,29,National,0,Influenza-like illness,4784172,70
1.0223,22/07/2019,28/07/2019,2019,30,National,0,Influenza-like illness,4793304,49
1.3167,29/07/2019,04/08/2019,2019,31,National,0,Influenza-like illness,4784746,63
1.5354,05/08/2019,11/08/2019,2019,32,National,0,Influenza-like illness,4819745,74
1.3244,12/08/2019,18/08/2019,2019,33,National,0,Influenza-like illness,4907906,65
1.2489,19/08/2019,25/08/2019,2019,34,National,0,Influenza-like illness,4724069,59
1.3406,26/08/2019,01/09/2019,2019,35,National,0,Influenza-like illness,4848530,65
1.5659,02/09/2019,08/09/2019,2019,36,National,0,Influenza-like illness,4853298,76
1.9837,09/09/2019,15/09/2019,2019,37,National,0,Influenza-like illness,4788997,95
2.5723,16/09/2019,22/09/2019,2019,38,National,0,Influenza-like illness,4898375,126
3.2721,23/09/2019,29/09/2019,2019,39,National,0,Influenza-like illness,4767532,156
4.228,30/09/2019,06/10/2019,2019,40,National,0,Influenza-like illness,4777636,202
5.2874,07/10/2019,13/10/2019,2019,41,National,0,Influenza-like illness,4803868,254
6.1228,14/10/2019,20/10/2019,2019,42,National,0,Influenza-like illness,4801709,294
5.6193,21/10/2019,27/10/2019,2019,43,National,0,Influenza-like illness,4804872,270
5.6652,28/10/2019,03/11/2019,2019,44,National,0,Influenza-like illness,4836515,274
6.0845,04/11/2019,10/11/2019,2019,45,National,0,Influenza-like illness,4881282,297
6.9811,11/11/2019,17/11/2019,2019,46,National,0,Influenza-like illness,4855937,339
9.9494,18/11/2019,24/11/2019,2019,47,National,0,Influenza-like illness,4814344,479
12.8901,25/11/2019,01/12/2019,2019,48,National,0,Influenza-like illness,4895231,631
15.3016,02/12/2019,08/12/2019,2019,49,National,0,Influenza-like illness,4816478,737
19.6491,09/12/2019,15/12/2019,2019,50,National,0,Influenza-like illness,4880638,959
23.3233,16/12/2019,22/12/2019,2019,51,National,0,Influenza-like illness,4892100,1141
15.4891,23/12/2019,29/12/2019,2019,52,National,0,Influenza-like illness,4990607,773
18.5586,30/12/2019,05/01/2020,2020,1,National,0,Influenza-like illness,4892608,908
17.997,06/01/2020,12/01/2020,2020,2,National,0,Influenza-like illness,4867487,876
11.4819,13/01/2020,19/01/2020,2020,3,National,0,Influenza-like illness,4885930,561
8.9784,20/01/2020,26/01/2020,2020,4,National,0,Influenza-like illness,4878356,438
10.8738,27/01/2020,02/02/2020,2020,5,National,0,Influenza-like illness,4883300,531
9.2789,03/02/2020,09/02/2020,2020,6,National,0,Influenza-like illness,4838930,449
9.487,10/02/2020,16/02/2020,2020,7,National,0,Influenza-like illness,4869831,462
7.105,17/02/2020,23/02/2020,2020,8,National,0,Influenza-like illness,4940174,351
9.2706,24/02/2020,01/03/2020,2020,9,National,0,Influenza-like illness,4929568,457
10.7304,02/03/2020,08/03/2020,2020,10,National,0,Influenza-like illness,4967183,533
14.326,09/03/2020,15/03/2020,2020,11,National,0,Influenza-like illness,4928119,706
9.4445,16/03/2020,22/03/2020,2020,12,National,0,Influenza-like illness,5145868,486
6.716,23/03/2020,29/03/2020,2020,13,National,0,Influenza-like illness,5122106,344
5.2803,30/03/2020,05/04/2020,2020,14,National,0,Influenza-like illness,5189051,274
3.644,06/04/2020,12/04/2020,2020,15,National,0,Influenza-like illness,5104345,186
3.1626,13/04/2020,19/04/2020,2020,16,National,0,Influenza-like illness,4995861,158
2.917,20/04/2020,26/04/2020,2020,17,National,0,Influenza-like illness,4970943,145
2.6218,27/04/2020,03/05/2020,2020,18,National,0,Influenza-like illness,4996552,131
1.5362,04/05/2020,10/05/2020,2020,19,National,0,Influenza-like illness,5012400,77
1.1997,11/05/2020,17/05/2020,2020,20,National,0,Influenza-like illness,5167913,62
1.2167,18/05/2020,24/05/2020,2020,21,National,0,Influenza-like illness,5260207,64
0.6116,25/05/2020,31/05/2020,2020,22,National,0,Influenza-like illness,5395819,33
0.5581,01/06/2020,07/06/2020,2020,23,National,0,Influenza-like illness,5375215,30
0.8824,08/06/2020,14/06/2020,2020,24,National,0,Influenza-like illness,5326190,47
0.6635,15/06/2020,21/06/2020,2020,25,National,0,Influenza-like illness,5274689,35
0.4033,22/06/2020,28/06/2020,2020,26,National,0,Influenza-like illness,5206999,21
0.5979,29/06/2020,05/07/2020,2020,27,National,0,Influenza-like illness,5352253,32
0.4243,06/07/2020,12/07/2020,2020,28,National,0,Influenza-like illness,5420211,23
0.3335,13/07/2020,19/07/2020,2020,29,National,0,Influenza-like illness,5396516,18
0.3827,20/07/2020,26/07/2020,2020,30,National,0,Influenza-like illness,5487520,21
0.4646,27/07/2020,02/08/2020,2020,31,National,0,Influenza-like illness,5381300,25
0.4396,03/08/2020,09/08/2020,2020,32,National,0,Influenza-like illness,5459888,24
0.2383,10/08/2020,16/08/2020,2020,33,National,0,Influenza-like illness,5455523,13
0.3642,17/08/2020,23/08/2020,2020,34,National,0,Influenza-like illness,5491049,20
0.3869,24/08/2020,30/08/2020,2020,35,National,0,Influenza-like illness,5427614,21
0.6336,31/08/2020,06/09/2020,2020,36,National,0,Influenza-like illness,5523600,35
1.1483,07/09/2020,13/09/2020,2020,37,National,0,Influenza-like illness,5486565,63
1.5472,14/09/2020,20/09/2020,2020,38,National,0,Influenza-like illness,5299900,82
1.7243,21/09/2020,27/09/2020,2020,39,National,0,Influenza-like illness,5335428,92
1.9025,28/09/2020,04/10/2020,2020,40,National,0,Influenza-like illness,5519190,105
1.6696,05/10/2020,11/10/2020,2020,41,National,0,Influenza-like illness,5450541,91
1.5838,12/10/2020,18/10/2020,2020,42,National,0,Influenza-like illness,5493238,87
1.2614,19/10/2020,25/10/2020,2020,43,National,0,Influenza-like illness,5549245,70
1.318,26/10/2020,01/11/2020,2020,44,National,0,Influenza-like illness,5538564,73
1.4936,02/11/2020,08/11/2020,2020,45,National,0,Influenza-like illness,5489946,82
1.3588,09/11/2020,15/11/2020,2020,46,National,0,Influenza-like illness,5519400,75
1.1884,16/11/2020,22/11/2020,2020,47,National,0,Influenza-like illness,5469322,65
1.188,23/11/2020,29/11/2020,2020,48,National,0,Influenza-like illness,5555504,66
1.1238,30/11/2020,06/12/2020,2020,49,National,0,Influenza-like illness,5428096,61
1.1989,07/12/2020,13/12/2020,2020,50,National,0,Influenza-like illness,5588372,67
1.1345,14/12/2020,20/12/2020,2020,51,National,0,Influenza-like illness,5553091,63
0.6719,21/12/2020,27/12/2020,2020,52,National,0,Influenza-like illness,5656007,38
0.8317,28/12/2020,03/01/2021,2020,53,National,0,Influenza-like illness,5651357,47
1.2218,04/01/2021,10/01/2021,2021,1,National,0,Influenza-like illness,5483660,67
1.2291,11/01/2021,17/01/2021,2021,2,National,0,Influenza-like illness,5532310,68
0.8836,18/01/2021,24/01/2021,2021,3,National,0,Influenza-like illness,5545561,49
1.1036,25/01/2021,31/01/2021,2021,4,National,0,Influenza-like illness,5527293,61
0.9147,01/02/2021,07/02/2021,2021,5,National,0,Influenza-like illness,5575639,51
0.6198,08/02/2021,14/02/2021,2021,6,National,0,Influenza-like illness,5646770,35
0.9499,15/02/2021,21/02/2021,2021,7,National,0,Influenza-like illness,5474402,52
0.4035,22/02/2021,28/02/2021,2021,8,National,0,Influenza-like illness,5700710,23
0.3514,01/03/2021,07/03/2021,2021,9,National,0,Influenza-like illness,5691777,20
0.6901,08/03/2021,14/03/2021,2021,10,National,0,Influenza-like illness,5651600,39
0.4701,15/03/2021,21/03/2021,2021,11,National,0,Influenza-like illness,5743163,27
0.6351,22/03/2021,28/03/2021,2021,12,National,0,Influenza-like illness,5668335,36
0.4392,29/03/2021,04/04/2021,2021,13,National,0,Influenza-like illness,5691991,25
0.2971,05/04/2021,11/04/2021,2021,14,National,0,Influenza-like illness,5722597,17
0.5838,12/04/2021,18/04/2021,2021,15,National,0,Influenza-like illness,5652596,33
0.4916,19/04/2021,25/04/2021,2021,16,National,0,Influenza-like illness,5696246,28
0.4356,26/04/2021,02/05/2021,2021,17,National,0,Influenza-like illness,5739243,25
0.3789,03/05/2021,09/05/2021,2021,18,National,0,Influenza-like illness,5806102,22
0.6063,10/05/2021,16/05/2021,2021,19,National,0,Influenza-like illness,5772745,35
0.8141,17/05/2021,23/05/2021,2021,20,National,0,Influenza-like illness,5650604,46
0.7143,24/05/2021,30/05/2021,2021,21,National,0,Influenza-like illness,5740016,41
0.509,31/05/2021,06/06/2021,2021,22,National,0,Influenza-like illness,5697076,29
0.6701,07/06/2021,13/06/2021,2021,23,National,0,Influenza-like illness,5671165,38
0.3353,14/06/2021,20/06/2021,2021,24,National,0,Influenza-like illness,5666785,19
0.8596,21/06/2021,27/06/2021,2021,25,National,0,Influenza-like illness,5700531,49
0.8109,28/06/2021,04/07/2021,2021,26,National,0,Influenza-like illness,5672756,46
0.6748,05/07/2021,11/07/2021,2021,27,National,0,Influenza-like illness,5779208,39
0.7693,12/07/2021,18/07/2021,2021,28,National,0,Influenza-like illness,5719830,44
0.6296,19/07/2021,25/07/2021,2021,29,National,0,Influenza-like illness,5717961,36
0.6492,26/07/2021,01/08/2021,2021,30,National,0,Influenza-like illness,5699620,37
0.6824,02/08/2021,08/08/2021,2021,31,National,0,Influenza-like illness,5715253,39
0.5931,09/08/2021,15/08/2021,2021,32,National,0,Influenza-like illness,5732140,34
0.895,16/08/2021,22/08/2021,2021,33,National,0,Influenza-like illness,5698421,51
0.9242,23/08/2021,29/08/2021,2021,34,National,0,Influenza-like illness,5843195,54
0.7555,30/08/2021,05/09/2021,2021,35,National,0,Influenza-like illness,5823593,44
1.2469,06/09/2021,12/09/2021,2021,36,National,0,Influenza-like illness,5854289,73
1.1312,13/09/2021,19/09/2021,2021,37,National,0,Influenza-like illness,5745882,65
1.6328,20/09/2021,26/09/2021,2021,38,National,0,Influenza-like illness,5757119,94
2.3195,27/09/2021,03/10/2021,2021,39,National,0,Influenza-like illness,5604598,130
3.1233,04/10/2021,10/10/2021,2021,40,National,0,Influenza-like illness,5635018,176
3.6966,11/10/2021,17/10/2021,2021,41,National,0,Influenza-like illness,5626845,208
3.5691,18/10/2021,24/10/2021,2021,42,National,0,Influenza-like illness,5519577,197
3.0495,25/10/2021,31/10/2021,2021,43,National,0,Influenza-like illness,5672989,173
2.9672,01/11/2021,07/11/2021,2021,44,National,0,Influenza-like illness,5695681,169
2.6749,08/11/2021,14/11/2021,2021,45,National,0,Influenza-like illness,5682443,152
2.9789,15/11/2021,21/11/2021,2021,46,National,0,Influenza-like illness,5639717,168
2.8572,22/11/2021,28/11/2021,2021,47,National,0,Influenza-like illness,5634879,161
3.4112,29/11/2021,05/12/2021,2021,48,National,0,Influenza-like illness,5687196,194
3.0504,06/12/2021,12/12/2021,2021,49,National,0,Influenza-like illness,5704157,174
2.4316,13/12/2021,19/12/2021,2021,50,National,0,Influenza-like illness,5634195,137
1.9111,20/12/2021,26/12/2021,2021,51,National,0,Influenza-like illness,5651265,108
1.0169,27/12/2021,02/01/2022,2021,52,National,0,Influenza-like illness,5802161,59
1.2414,03/01/2022,09/01/2022,2022,1,National,0,Influenza-like illness,5719123,71
1.4343,10/01/2022,16/01/2022,2022,2,National,0,Influenza-like illness,5717047,82
1.0142,17/01/2022,23/01/2022,2022,3,National,0,Influenza-like illness,5718671,58
1.1334,24/01/2022,30/01/2022,2022,4,National,0,Influenza-like illness,5735149,65
1.1652,31/01/2022,06/02/2022,2022,5,National,0,Influenza-like illness,5750097,67
1.4544,07/02/2022,13/02/2022,2022,6,National,0,Influenza-like illness,5706688,83
1.1943,14/02/2022,20/02/2022,2022,7,National,0,Influenza-like illness,5861221,70
1.1267,21/02/2022,27/02/2022,2022,8,National,0,Influenza-like illness,5768977,65
1.5181,28/02/2022,06/03/2022,2022,9,National,0,Influenza-like illness,5730865,87
2.0711,07/03/2022,13/03/2022,2022,10,National,0,Influenza-like illness,5793947,120
1.7868,14/03/2022,20/03/2022,2022,11,National,0,Influenza-like illness,5764367,103
2.2615,21/03/2022,27/03/2022,2022,12,National,0,Influenza-like illness,5704290,129
2.4174,28/03/2022,03/04/2022,2022,13,National,0,Influenza-like illness,5625822,136
2.1744,04/04/2022,10/04/2022,2022,14,National,0,Influenza-like illness,5748662,125
1.9672,11/04/2022,17/04/2022,2022,15,National,0,Influenza-like illness,5794929,114
1.6168,18/04/2022,24/04/2022,2022,16,National,0,Influenza-like illness,5814103,94
1.2282,25/04/2022,01/05/2022,2022,17,National,0,Influenza-like illness,5699300,70
1.3727,02/05/2022,08/05/2022,2022,18,National,0,Influenza-like illness,5827748,80
1.5151,09/05/2022,15/05/2022,2022,19,National,0,Influenza-like illness,5676119,86
1.4944,16/05/2022,22/05/2022,2022,20,National,0,Influenza-like illness,5754706,86
1.1772,23/05/2022,29/05/2022,2022,21,National,0,Influenza-like illness,5776230,68
0.5142,30/05/2022,05/06/2022,2022,22,National,0,Influenza-like illness,6029352,31
1.3815,06/06/2022,12/06/2022,2022,23,National,0,Influenza-like illness,5645849,78
1.1582,13/06/2022,19/06/2022,2022,24,National,0,Influenza-like illness,5698288,66
0.9719,20/06/2022,26/06/2022,2022,25,National,0,Influenza-like illness,5659058,55
1.352,27/06/2022,03/07/2022,2022,26,National,0,Influenza-like illness,5695428,77
1.4971,04/07/2022,10/07/2022,2022,27,National,0,Influenza-like illness,5677617,85
1.0633,11/07/2022,17/07/2022,2022,28,National,0,Influenza-like illness,5830806,62
0.7792,18/07/2022,24/07/2022,2022,29,National,0,Influenza-like illness,5774912,45
0.9641,25/07/2022,31/07/2022,2022,30,National,0,Influenza-like illness,5808681,56
0.8937,01/08/2022,07/08/2022,2022,31,National,0,Influenza-like illness,5818466,52
0.6377,08/08/2022,14/08/2022,2022,32,National,0,Influenza-like illness,5802536,37
0.8347,15/08/2022,21/08/2022,2022,33,National,0,Influenza-like illness,5750781,48
0.7213,22/08/2022,28/08/2022,2022,34,National,0,Influenza-like illness,5822703,42
0.7491,29/08/2022,04/09/2022,2022,35,National,0,Influenza-like illness,5740432,43
0.869,05/09/2022,11/09/2022,2022,36,National,0,Influenza-like illness,5753664,50
1.2829,12/09/2022,18/09/2022,2022,37,National,0,Influenza-like illness,5768298,74
1.3926,19/09/2022,25/09/2022,2022,38,National,0,Influenza-like illness,5888148,82
2.4015,26/09/2022,02/10/2022,2022,39,National,0,Influenza-like illness,5871249,141
3.0767,03/10/2022,09/10/2022,2022,40,National,0,Influenza-like illness,5752956,177
3.7504,10/10/2022,16/10/2022,2022,41,National,0,Influenza-like illness,5706063,214
3.5471,17/10/2022,23/10/2022,2022,42,National,0,Influenza-like illness,5751120,204
3.864,24/10/2022,30/10/2022,2022,43,National,0,Influenza-like illness,5719465,221
3.6844,31/10/2022,06/11/2022,2022,44,National,0,Influenza-like illness,5835474,215
4.6498,07/11/2022,13/11/2022,2022,45,National,0,Influenza-like illness,5785221,269
5.9453,14/11/2022,20/11/2022,2022,46,National,0,Influenza-like illness,5769281,343
7.4083,21/11/2022,27/11/2022,2022,47,National,0,Influenza-like illness,5777318,428
10.3375,28/11/2022,04/12/2022,2022,48,National,0,Influenza-like illness,5746087,594
18.1015,05/12/2022,11/12/2022,2022,49,National,0,Influenza-like illness,5634901,1020
27.8904,12/12/2022,18/12/2022,2022,50,National,0,Influenza-like illness,5607666,1564
38.7575,19/12/2022,25/12/2022,2022,51,National,0,Influenza-like illness,5601491,2171
26.6027,26/12/2022,01/01/2023,2022,52,National,0,Influenza-like illness,5747538,1529
24.7709,02/01/2023,08/01/2023,2023,1,National,0,Influenza-like illness,11408569,2826
14.4834,09/01/2023,15/01/2023,2023,2,National,0,Influenza-like illness,11426868,1655
8.3186,16/01/2023,22/01/2023,2023,3,National,0,Influenza-like illness,11432266,951
6.3204,23/01/2023,29/01/2023,2023,4,National,0,Influenza-like illness,11439116,723
6.4275,30/01/2023,05/02/2023,2023,5,National,0,Influenza-like illness,11450751,736
6.4664,06/02/2023,12/02/2023,2023,6,National,0,Influenza-like illness,11459241,741
5.3631,13/02/2023,19/02/2023,2023,7,National,0,Influenza-like illness,11467262,615
5.175,20/02/2023,26/02/2023,2023,8,National,0,Influenza-like illness,11459014,593
4.7248,27/02/2023,05/03/2023,2023,9,National,0,Influenza-like illness,11471359,542
4.6151,06/03/2023,12/03/2023,2023,10,National,0,Influenza-like illness,11592357,535
4.8973,13/03/2023,19/03/2023,2023,11,National,0,Influenza-like illness,11598129,568
4.6399,20/03/2023,26/03/2023,2023,12,National,0,Influenza-like illness,11595183,538
3.9143,27/03/2023,02/04/2023,2023,13,National,0,Influenza-like illness,11598611,454
2.3339,03/04/2023,09/04/2023,2023,14,National,0,Influenza-like illness,11611429,271
